{
"type": "FeatureCollection",
"name": "CulturalResourceBuildingPoint_ExportFeatures",
"features": [
{ "type": "Feature", "properties": { "CR_ID": "{7B816F21-695E-4180-8E62-E08EBF4EAF95}", "SURVEY_ID": null, "GEOM_ID": "{51DA91C1-F5CD-4C09-BE2F-B7B199EA7005}", "RESNAME": "Hylehurst", "BND_TYPE": "Arbitrary point", "BND_OTHER": "Point is unspecified coordinate from NPS NRIS", "IS_EXTANT": "Unknown", "EXTANT_OTH": "Feature is likely but not guaranteed to be extant.  Feature was created as part of batch process from NRIS and status needs to be confirmed individually.", "CONTRIBRES": "Unknown", "RESTRICT": "Unrestricted", "SOURCE": "National Register of Historic Places -- National Park Service", "SRC_DATE": "1983-07-21", "SRC_SCALE": "1:24000", "SRC_ACCU": "+/- 12 meters", "VERT_ERROR": "Not Applicable", "SRC_COORD": "Coordinates are typically provided in UTM format, and datum is assumed GCS_North_American_1927 except for sites in certain locations such as Pacifc Ocean islands.", "MAP_METHOD": "Derived by XY event point or centroid generation", "MAP_MTH_OT": "Coordinates are extracted directly from NPS NRIS and processed from assumed coordinate systems based upon location and CERTDATE via XY Event layers into WGS 84 system.  In some instances, clearly incorrect location data has been manually adjusted.", "CREATEDATE": "2012-08-01", "EDIT_DATE": "2012-08-17", "EDIT_BY": "Matt Stutts, NPS, Cultural Resources GIS", "ORIGINATOR": "National Register of Historic Places -- National Park Service", "CONSTRANT": "Extant status and datum information for resource not recorded by source; coordinate pairs used to generate points not checked for accuracy by source", "CR_NOTES": null, "ALPHA_CODE": null, "UNIT_CODEO": null, "UNIT": null, "UNIT_OTHER": null, "UNIT_TYPE": null, "GROUP_CODE": null, "REG_CODE": null, "META_MIDF": null, "NRIS_Refnu": "83001878" }, "geometry": { "type": "Point", "coordinates": [ -80.2464296, 36.0923664 ] } },
{ "type": "Feature", "properties": { "CR_ID": "{361549C2-7AAE-4863-9499-5CC14C7F23AD}", "SURVEY_ID": null, "GEOM_ID": "{97157554-7AC3-4000-9512-364EC4AA1808}", "RESNAME": "Nissen Building", "BND_TYPE": "Arbitrary point", "BND_OTHER": "Point is unspecified coordinate from NPS NRIS", "IS_EXTANT": "Unknown", "EXTANT_OTH": "Feature is likely but not guaranteed to be extant.  Feature was created as part of batch process from NRIS and status needs to be confirmed individually.", "CONTRIBRES": "Unknown", "RESTRICT": "Unrestricted", "SOURCE": "National Register of Historic Places -- National Park Service", "SRC_DATE": "1983-03-17", "SRC_SCALE": "1:24000", "SRC_ACCU": "+/- 12 meters", "VERT_ERROR": "Not Applicable", "SRC_COORD": "Coordinates are typically provided in UTM format, and datum is assumed GCS_North_American_1927 except for sites in certain locations such as Pacifc Ocean islands.", "MAP_METHOD": "Derived by XY event point or centroid generation", "MAP_MTH_OT": "Coordinates are extracted directly from NPS NRIS and processed from assumed coordinate systems based upon location and CERTDATE via XY Event layers into WGS 84 system.  In some instances, clearly incorrect location data has been manually adjusted.", "CREATEDATE": "2012-08-01", "EDIT_DATE": "2012-08-17", "EDIT_BY": "Matt Stutts, NPS, Cultural Resources GIS", "ORIGINATOR": "National Register of Historic Places -- National Park Service", "CONSTRANT": "Extant status and datum information for resource not recorded by source; coordinate pairs used to generate points not checked for accuracy by source", "CR_NOTES": null, "ALPHA_CODE": null, "UNIT_CODEO": null, "UNIT": null, "UNIT_OTHER": null, "UNIT_TYPE": null, "GROUP_CODE": null, "REG_CODE": null, "META_MIDF": null, "NRIS_Refnu": "83001880" }, "geometry": { "type": "Point", "coordinates": [ -80.2535856, 36.0921226 ] } },
{ "type": "Feature", "properties": { "CR_ID": "{4146E51D-F068-4913-A4A4-3F40B50258BC}", "SURVEY_ID": null, "GEOM_ID": "{0BE47E70-876D-446B-B01B-3BC349C3F17D}", "RESNAME": "Salem Town Hall", "BND_TYPE": "Arbitrary point", "BND_OTHER": "Point is unspecified coordinate from NPS NRIS", "IS_EXTANT": "Unknown", "EXTANT_OTH": "Feature is likely but not guaranteed to be extant.  Feature was created as part of batch process from NRIS and status needs to be confirmed individually.", "CONTRIBRES": "Unknown", "RESTRICT": "Unrestricted", "SOURCE": "National Register of Historic Places -- National Park Service", "SRC_DATE": "1983-03-17", "SRC_SCALE": "1:24000", "SRC_ACCU": "+/- 12 meters", "VERT_ERROR": "Not Applicable", "SRC_COORD": "Coordinates are typically provided in UTM format, and datum is assumed GCS_North_American_1927 except for sites in certain locations such as Pacifc Ocean islands.", "MAP_METHOD": "Derived by XY event point or centroid generation", "MAP_MTH_OT": "Coordinates are extracted directly from NPS NRIS and processed from assumed coordinate systems based upon location and CERTDATE via XY Event layers into WGS 84 system.  In some instances, clearly incorrect location data has been manually adjusted.", "CREATEDATE": "2012-08-01", "EDIT_DATE": "2012-08-17", "EDIT_BY": "Matt Stutts, NPS, Cultural Resources GIS", "ORIGINATOR": "National Register of Historic Places -- National Park Service", "CONSTRANT": "Extant status and datum information for resource not recorded by source; coordinate pairs used to generate points not checked for accuracy by source", "CR_NOTES": null, "ALPHA_CODE": null, "UNIT_CODEO": null, "UNIT": null, "UNIT_OTHER": null, "UNIT_TYPE": null, "GROUP_CODE": null, "REG_CODE": null, "META_MIDF": null, "NRIS_Refnu": "83001882" }, "geometry": { "type": "Point", "coordinates": [ -80.243546, 36.0918974 ] } },
{ "type": "Feature", "properties": { "CR_ID": "{FC1901B5-0691-4B8E-9CC9-0087F0E557F9}", "SURVEY_ID": null, "GEOM_ID": "{02A19E69-8AD5-4745-A29D-19C226300A4E}", "RESNAME": "Bland, Joseph Franklin, House", "BND_TYPE": "Arbitrary point", "BND_OTHER": "Point is unspecified coordinate from NPS NRIS", "IS_EXTANT": "Unknown", "EXTANT_OTH": "Feature is likely but not guaranteed to be extant.  Feature was created as part of batch process from NRIS and status needs to be confirmed individually.", "CONTRIBRES": "Unknown", "RESTRICT": "Unrestricted", "SOURCE": "National Register of Historic Places -- National Park Service", "SRC_DATE": "1984-08-21", "SRC_SCALE": "1:24000", "SRC_ACCU": "+/- 12 meters", "VERT_ERROR": "Not Applicable", "SRC_COORD": "Coordinates are typically provided in UTM format, and datum is assumed GCS_North_American_1927 except for sites in certain locations such as Pacifc Ocean islands.", "MAP_METHOD": "Derived by XY event point or centroid generation", "MAP_MTH_OT": "Coordinates are extracted directly from NPS NRIS and processed from assumed coordinate systems based upon location and CERTDATE via XY Event layers into WGS 84 system.  In some instances, clearly incorrect location data has been manually adjusted.", "CREATEDATE": "2012-08-01", "EDIT_DATE": "2012-08-17", "EDIT_BY": "Matt Stutts, NPS, Cultural Resources GIS", "ORIGINATOR": "National Register of Historic Places -- National Park Service", "CONSTRANT": "Extant status and datum information for resource not recorded by source; coordinate pairs used to generate points not checked for accuracy by source", "CR_NOTES": null, "ALPHA_CODE": null, "UNIT_CODEO": null, "UNIT": null, "UNIT_OTHER": null, "UNIT_TYPE": null, "GROUP_CODE": null, "REG_CODE": null, "META_MIDF": null, "NRIS_Refnu": "84002265" }, "geometry": { "type": "Point", "coordinates": [ -80.2701882, 36.1057667 ] } },
{ "type": "Feature", "properties": { "CR_ID": "{8F088515-AD04-4CE6-A213-20FB67153C6B}", "SURVEY_ID": null, "GEOM_ID": "{1320A063-54AE-4C75-AAC4-6FCE0E3BE8C6}", "RESNAME": "O'Hanlon Building", "BND_TYPE": "Arbitrary point", "BND_OTHER": "Point is unspecified coordinate from NPS NRIS", "IS_EXTANT": "Unknown", "EXTANT_OTH": "Feature is likely but not guaranteed to be extant.  Feature was created as part of batch process from NRIS and status needs to be confirmed individually.", "CONTRIBRES": "Unknown", "RESTRICT": "Unrestricted", "SOURCE": "National Register of Historic Places -- National Park Service", "SRC_DATE": "1984-07-12", "SRC_SCALE": "1:24000", "SRC_ACCU": "+/- 12 meters", "VERT_ERROR": "Not Applicable", "SRC_COORD": "Coordinates are typically provided in UTM format, and datum is assumed GCS_North_American_1927 except for sites in certain locations such as Pacifc Ocean islands.", "MAP_METHOD": "Derived by XY event point or centroid generation", "MAP_MTH_OT": "Coordinates are extracted directly from NPS NRIS and processed from assumed coordinate systems based upon location and CERTDATE via XY Event layers into WGS 84 system.  In some instances, clearly incorrect location data has been manually adjusted.", "CREATEDATE": "2012-08-01", "EDIT_DATE": "2012-08-17", "EDIT_BY": "Matt Stutts, NPS, Cultural Resources GIS", "ORIGINATOR": "National Register of Historic Places -- National Park Service", "CONSTRANT": "Extant status and datum information for resource not recorded by source; coordinate pairs used to generate points not checked for accuracy by source", "CR_NOTES": null, "ALPHA_CODE": null, "UNIT_CODEO": null, "UNIT": null, "UNIT_OTHER": null, "UNIT_TYPE": null, "GROUP_CODE": null, "REG_CODE": null, "META_MIDF": null, "NRIS_Refnu": "84002269" }, "geometry": { "type": "Point", "coordinates": [ -80.2452603, 36.0984897 ] } },
{ "type": "Feature", "properties": { "CR_ID": "{28686D28-C113-4449-96C7-5D8535458DE1}", "SURVEY_ID": null, "GEOM_ID": "{F24F6D5A-DA17-4BC8-B7FD-2B9032ED6469}", "RESNAME": "Spruce Street YMCA", "BND_TYPE": "Arbitrary point", "BND_OTHER": "Point is unspecified coordinate from NPS NRIS", "IS_EXTANT": "Unknown", "EXTANT_OTH": "Feature is likely but not guaranteed to be extant.  Feature was created as part of batch process from NRIS and status needs to be confirmed individually.", "CONTRIBRES": "Unknown", "RESTRICT": "Unrestricted", "SOURCE": "National Register of Historic Places -- National Park Service", "SRC_DATE": "1984-07-12", "SRC_SCALE": "1:24000", "SRC_ACCU": "+/- 12 meters", "VERT_ERROR": "Not Applicable", "SRC_COORD": "Coordinates are typically provided in UTM format, and datum is assumed GCS_North_American_1927 except for sites in certain locations such as Pacifc Ocean islands.", "MAP_METHOD": "Derived by XY event point or centroid generation", "MAP_MTH_OT": "Coordinates are extracted directly from NPS NRIS and processed from assumed coordinate systems based upon location and CERTDATE via XY Event layers into WGS 84 system.  In some instances, clearly incorrect location data has been manually adjusted.", "CREATEDATE": "2012-08-01", "EDIT_DATE": "2012-08-17", "EDIT_BY": "Matt Stutts, NPS, Cultural Resources GIS", "ORIGINATOR": "National Register of Historic Places -- National Park Service", "CONSTRANT": "Extant status and datum information for resource not recorded by source; coordinate pairs used to generate points not checked for accuracy by source", "CR_NOTES": null, "ALPHA_CODE": null, "UNIT_CODEO": null, "UNIT": null, "UNIT_OTHER": null, "UNIT_TYPE": null, "GROUP_CODE": null, "REG_CODE": null, "META_MIDF": null, "NRIS_Refnu": "84002296" }, "geometry": { "type": "Point", "coordinates": [ -80.2484937, 36.0972479 ] } },
{ "type": "Feature", "properties": { "CR_ID": "{D53344C0-5EE3-492D-A20D-8AFA8B7AEEA3}", "SURVEY_ID": null, "GEOM_ID": "{1607D6A5-618C-40C3-9F95-8C63C2A1058E}", "RESNAME": "Sosnik-Morris-Early Commercial Block", "BND_TYPE": "Arbitrary point", "BND_OTHER": "Point is unspecified coordinate from NPS NRIS", "IS_EXTANT": "Unknown", "EXTANT_OTH": "Feature is likely but not guaranteed to be extant.  Feature was created as part of batch process from NRIS and status needs to be confirmed individually.", "CONTRIBRES": "Unknown", "RESTRICT": "Unrestricted", "SOURCE": "National Register of Historic Places -- National Park Service", "SRC_DATE": "1984-04-05", "SRC_SCALE": "1:24000", "SRC_ACCU": "+/- 12 meters", "VERT_ERROR": "Not Applicable", "SRC_COORD": "Coordinates are typically provided in UTM format, and datum is assumed GCS_North_American_1927 except for sites in certain locations such as Pacifc Ocean islands.", "MAP_METHOD": "Derived by XY event point or centroid generation", "MAP_MTH_OT": "Coordinates are extracted directly from NPS NRIS and processed from assumed coordinate systems based upon location and CERTDATE via XY Event layers into WGS 84 system.  In some instances, clearly incorrect location data has been manually adjusted.", "CREATEDATE": "2012-08-01", "EDIT_DATE": "2012-08-17", "EDIT_BY": "Matt Stutts, NPS, Cultural Resources GIS", "ORIGINATOR": "National Register of Historic Places -- National Park Service", "CONSTRANT": "Extant status and datum information for resource not recorded by source; coordinate pairs used to generate points not checked for accuracy by source", "CR_NOTES": null, "ALPHA_CODE": null, "UNIT_CODEO": null, "UNIT": null, "UNIT_OTHER": null, "UNIT_TYPE": null, "GROUP_CODE": null, "REG_CODE": null, "META_MIDF": null, "NRIS_Refnu": "84002293" }, "geometry": { "type": "Point", "coordinates": [ -80.2535856, 36.0921226 ] } },
{ "type": "Feature", "properties": { "CR_ID": "{838BC7DE-7719-4061-82DE-32A9815CEE21}", "SURVEY_ID": null, "GEOM_ID": "{9089D00A-8968-4C70-A342-C098F1F662AA}", "RESNAME": "Washovia Bank and Trust Company Building", "BND_TYPE": "Arbitrary point", "BND_OTHER": "Point is unspecified coordinate from NPS NRIS", "IS_EXTANT": "Unknown", "EXTANT_OTH": "Feature is likely but not guaranteed to be extant.  Feature was created as part of batch process from NRIS and status needs to be confirmed individually.", "CONTRIBRES": "Unknown", "RESTRICT": "Unrestricted", "SOURCE": "National Register of Historic Places -- National Park Service", "SRC_DATE": "1984-05-31", "SRC_SCALE": "1:24000", "SRC_ACCU": "+/- 12 meters", "VERT_ERROR": "Not Applicable", "SRC_COORD": "Coordinates are typically provided in UTM format, and datum is assumed GCS_North_American_1927 except for sites in certain locations such as Pacifc Ocean islands.", "MAP_METHOD": "Derived by XY event point or centroid generation", "MAP_MTH_OT": "Coordinates are extracted directly from NPS NRIS and processed from assumed coordinate systems based upon location and CERTDATE via XY Event layers into WGS 84 system.  In some instances, clearly incorrect location data has been manually adjusted.", "CREATEDATE": "2012-08-01", "EDIT_DATE": "2012-08-17", "EDIT_BY": "Matt Stutts, NPS, Cultural Resources GIS", "ORIGINATOR": "National Register of Historic Places -- National Park Service", "CONSTRANT": "Extant status and datum information for resource not recorded by source; coordinate pairs used to generate points not checked for accuracy by source", "CR_NOTES": null, "ALPHA_CODE": null, "UNIT_CODEO": null, "UNIT": null, "UNIT_OTHER": null, "UNIT_TYPE": null, "GROUP_CODE": null, "REG_CODE": null, "META_MIDF": null, "NRIS_Refnu": "84002306" }, "geometry": { "type": "Point", "coordinates": [ -80.2439385, 36.0973094 ] } },
{ "type": "Feature", "properties": { "CR_ID": "{DCBAA781-5184-4C9C-BFD9-A44D37D4FBAE}", "SURVEY_ID": null, "GEOM_ID": "{2516EBE5-9AAB-42B0-9541-728BD399D232}", "RESNAME": "Lowe, Cicero Francis, House", "BND_TYPE": "Arbitrary point", "BND_OTHER": "Point is unspecified coordinate from NPS NRIS", "IS_EXTANT": "Unknown", "EXTANT_OTH": "Feature is likely but not guaranteed to be extant.  Feature was created as part of batch process from NRIS and status needs to be confirmed individually.", "CONTRIBRES": "Unknown", "RESTRICT": "Unrestricted", "SOURCE": "National Register of Historic Places -- National Park Service", "SRC_DATE": "1984-12-20", "SRC_SCALE": "1:24000", "SRC_ACCU": "+/- 12 meters", "VERT_ERROR": "Not Applicable", "SRC_COORD": "Coordinates are typically provided in UTM format, and datum is assumed GCS_North_American_1927 except for sites in certain locations such as Pacifc Ocean islands.", "MAP_METHOD": "Derived by XY event point or centroid generation", "MAP_MTH_OT": "Coordinates are extracted directly from NPS NRIS and processed from assumed coordinate systems based upon location and CERTDATE via XY Event layers into WGS 84 system.  In some instances, clearly incorrect location data has been manually adjusted.", "CREATEDATE": "2012-08-01", "EDIT_DATE": "2012-08-17", "EDIT_BY": "Matt Stutts, NPS, Cultural Resources GIS", "ORIGINATOR": "National Register of Historic Places -- National Park Service", "CONSTRANT": "Extant status and datum information for resource not recorded by source; coordinate pairs used to generate points not checked for accuracy by source", "CR_NOTES": null, "ALPHA_CODE": null, "UNIT_CODEO": null, "UNIT": null, "UNIT_OTHER": null, "UNIT_TYPE": null, "GROUP_CODE": null, "REG_CODE": null, "META_MIDF": null, "NRIS_Refnu": "84000535" }, "geometry": { "type": "Point", "coordinates": [ -80.2423883, 36.073633 ] } },
{ "type": "Feature", "properties": { "CR_ID": "{9A8DF8B9-BFDA-473A-A172-C30EB25762DC}", "SURVEY_ID": null, "GEOM_ID": "{52C56235-0830-4929-944E-11D6F39EA341}", "RESNAME": "Blair, William Allen, House", "BND_TYPE": "Arbitrary point", "BND_OTHER": "Point is unspecified coordinate from NPS NRIS", "IS_EXTANT": "Unknown", "EXTANT_OTH": "Feature is likely but not guaranteed to be extant.  Feature was created as part of batch process from NRIS and status needs to be confirmed individually.", "CONTRIBRES": "Unknown", "RESTRICT": "Unrestricted", "SOURCE": "National Register of Historic Places -- National Park Service", "SRC_DATE": "1985-04-25", "SRC_SCALE": "1:24000", "SRC_ACCU": "+/- 12 meters", "VERT_ERROR": "Not Applicable", "SRC_COORD": "Coordinates are typically provided in UTM format, and datum is assumed GCS_North_American_1927 except for sites in certain locations such as Pacifc Ocean islands.", "MAP_METHOD": "Derived by XY event point or centroid generation", "MAP_MTH_OT": "Coordinates are extracted directly from NPS NRIS and processed from assumed coordinate systems based upon location and CERTDATE via XY Event layers into WGS 84 system.  In some instances, clearly incorrect location data has been manually adjusted.", "CREATEDATE": "2012-08-01", "EDIT_DATE": "2012-08-17", "EDIT_BY": "Matt Stutts, NPS, Cultural Resources GIS", "ORIGINATOR": "National Register of Historic Places -- National Park Service", "CONSTRANT": "Extant status and datum information for resource not recorded by source; coordinate pairs used to generate points not checked for accuracy by source", "CR_NOTES": null, "ALPHA_CODE": null, "UNIT_CODEO": null, "UNIT": null, "UNIT_OTHER": null, "UNIT_TYPE": null, "GROUP_CODE": null, "REG_CODE": null, "META_MIDF": null, "NRIS_Refnu": "85000876" }, "geometry": { "type": "Point", "coordinates": [ -80.2465433, 36.0920966 ] } },
{ "type": "Feature", "properties": { "CR_ID": "{FD109A65-6D04-41A2-8D3A-244DBB965B4F}", "SURVEY_ID": null, "GEOM_ID": "{7899ECE9-B127-4546-B7CD-B9BD74E5548B}", "RESNAME": "Salem Tavern", "BND_TYPE": "Arbitrary point", "BND_OTHER": "Point is unspecified coordinate from NPS NRIS", "IS_EXTANT": "Unknown", "EXTANT_OTH": "Feature is likely but not guaranteed to be extant.  Feature was created as part of batch process from NRIS and status needs to be confirmed individually.", "CONTRIBRES": "Unknown", "RESTRICT": "Unrestricted", "SOURCE": "National Register of Historic Places -- National Park Service", "SRC_DATE": "1966-10-15", "SRC_SCALE": "1:24000", "SRC_ACCU": "+/- 12 meters", "VERT_ERROR": "Not Applicable", "SRC_COORD": "Coordinates are typically provided in UTM format, and datum is assumed GCS_North_American_1927 except for sites in certain locations such as Pacifc Ocean islands.", "MAP_METHOD": "Derived by XY event point or centroid generation", "MAP_MTH_OT": "Coordinates are extracted directly from NPS NRIS and processed from assumed coordinate systems based upon location and CERTDATE via XY Event layers into WGS 84 system.  In some instances, clearly incorrect location data has been manually adjusted.", "CREATEDATE": "2012-08-01", "EDIT_DATE": "2012-08-17", "EDIT_BY": "Matt Stutts, NPS, Cultural Resources GIS", "ORIGINATOR": "National Register of Historic Places -- National Park Service", "CONSTRANT": "Extant status and datum information for resource not recorded by source; coordinate pairs used to generate points not checked for accuracy by source", "CR_NOTES": null, "ALPHA_CODE": null, "UNIT_CODEO": null, "UNIT": null, "UNIT_OTHER": null, "UNIT_TYPE": null, "GROUP_CODE": null, "REG_CODE": null, "META_MIDF": null, "NRIS_Refnu": "66000592" }, "geometry": { "type": "Point", "coordinates": [ -80.2418303, 36.0854853 ] } },
{ "type": "Feature", "properties": { "CR_ID": "{E6750005-CB4C-4794-B689-32160106D302}", "SURVEY_ID": null, "GEOM_ID": "{68743C16-2071-428A-AA4B-501D1828A32B}", "RESNAME": "Single Brothers' House", "BND_TYPE": "Arbitrary point", "BND_OTHER": "Point is unspecified coordinate from NPS NRIS", "IS_EXTANT": "Unknown", "EXTANT_OTH": "Feature is likely but not guaranteed to be extant.  Feature was created as part of batch process from NRIS and status needs to be confirmed individually.", "CONTRIBRES": "Unknown", "RESTRICT": "Unrestricted", "SOURCE": "National Register of Historic Places -- National Park Service", "SRC_DATE": "1970-04-15", "SRC_SCALE": "1:24000", "SRC_ACCU": "+/- 12 meters", "VERT_ERROR": "Not Applicable", "SRC_COORD": "Coordinates are typically provided in UTM format, and datum is assumed GCS_North_American_1927 except for sites in certain locations such as Pacifc Ocean islands.", "MAP_METHOD": "Derived by XY event point or centroid generation", "MAP_MTH_OT": "Coordinates are extracted directly from NPS NRIS and processed from assumed coordinate systems based upon location and CERTDATE via XY Event layers into WGS 84 system.  In some instances, clearly incorrect location data has been manually adjusted.", "CREATEDATE": "2012-08-01", "EDIT_DATE": "2012-08-17", "EDIT_BY": "Matt Stutts, NPS, Cultural Resources GIS", "ORIGINATOR": "National Register of Historic Places -- National Park Service", "CONSTRANT": "Extant status and datum information for resource not recorded by source; coordinate pairs used to generate points not checked for accuracy by source", "CR_NOTES": null, "ALPHA_CODE": null, "UNIT_CODEO": null, "UNIT": null, "UNIT_OTHER": null, "UNIT_TYPE": null, "GROUP_CODE": null, "REG_CODE": null, "META_MIDF": null, "NRIS_Refnu": "70000454" }, "geometry": { "type": "Point", "coordinates": [ -80.2421466, 36.0872454 ] } },
{ "type": "Feature", "properties": { "CR_ID": "{2D4F9497-CC08-4CBA-9FA7-94FF510F4FE9}", "SURVEY_ID": null, "GEOM_ID": "{B795E37C-990F-4D14-BE70-79B93EF5DB39}", "RESNAME": "Gilmer Building", "BND_TYPE": "Arbitrary point", "BND_OTHER": "Point is unspecified coordinate from NPS NRIS", "IS_EXTANT": "Unknown", "EXTANT_OTH": "Feature is likely but not guaranteed to be extant.  Feature was created as part of batch process from NRIS and status needs to be confirmed individually.", "CONTRIBRES": "Unknown", "RESTRICT": "Unrestricted", "SOURCE": "National Register of Historic Places -- National Park Service", "SRC_DATE": "1982-07-29", "SRC_SCALE": "1:24000", "SRC_ACCU": "+/- 12 meters", "VERT_ERROR": "Not Applicable", "SRC_COORD": "Coordinates are typically provided in UTM format, and datum is assumed GCS_North_American_1927 except for sites in certain locations such as Pacifc Ocean islands.", "MAP_METHOD": "Derived by XY event point or centroid generation", "MAP_MTH_OT": "Coordinates are extracted directly from NPS NRIS and processed from assumed coordinate systems based upon location and CERTDATE via XY Event layers into WGS 84 system.  In some instances, clearly incorrect location data has been manually adjusted.", "CREATEDATE": "2012-08-01", "EDIT_DATE": "2012-08-17", "EDIT_BY": "Matt Stutts, NPS, Cultural Resources GIS", "ORIGINATOR": "National Register of Historic Places -- National Park Service", "CONSTRANT": "Extant status and datum information for resource not recorded by source; coordinate pairs used to generate points not checked for accuracy by source", "CR_NOTES": null, "ALPHA_CODE": null, "UNIT_CODEO": null, "UNIT": null, "UNIT_OTHER": null, "UNIT_TYPE": null, "GROUP_CODE": null, "REG_CODE": null, "META_MIDF": null, "NRIS_Refnu": "82003452" }, "geometry": { "type": "Point", "coordinates": [ -80.2397156, 36.0974629 ] } },
{ "type": "Feature", "properties": { "CR_ID": "{D94A974C-C38C-4270-B925-5E8A249A8A98}", "SURVEY_ID": null, "GEOM_ID": "{13319B05-A593-44CB-811B-C3B0DA85B3B0}", "RESNAME": "Rogers, James Mitchell, House", "BND_TYPE": "Arbitrary point", "BND_OTHER": "Point is unspecified coordinate from NPS NRIS", "IS_EXTANT": "Unknown", "EXTANT_OTH": "Feature is likely but not guaranteed to be extant.  Feature was created as part of batch process from NRIS and status needs to be confirmed individually.", "CONTRIBRES": "Unknown", "RESTRICT": "Unrestricted", "SOURCE": "National Register of Historic Places -- National Park Service", "SRC_DATE": "1982-07-15", "SRC_SCALE": "1:24000", "SRC_ACCU": "+/- 12 meters", "VERT_ERROR": "Not Applicable", "SRC_COORD": "Coordinates are typically provided in UTM format, and datum is assumed GCS_North_American_1927 except for sites in certain locations such as Pacifc Ocean islands.", "MAP_METHOD": "Derived by XY event point or centroid generation", "MAP_MTH_OT": "Coordinates are extracted directly from NPS NRIS and processed from assumed coordinate systems based upon location and CERTDATE via XY Event layers into WGS 84 system.  In some instances, clearly incorrect location data has been manually adjusted.", "CREATEDATE": "2012-08-01", "EDIT_DATE": "2012-08-17", "EDIT_BY": "Matt Stutts, NPS, Cultural Resources GIS", "ORIGINATOR": "National Register of Historic Places -- National Park Service", "CONSTRANT": "Extant status and datum information for resource not recorded by source; coordinate pairs used to generate points not checked for accuracy by source", "CR_NOTES": null, "ALPHA_CODE": null, "UNIT_CODEO": null, "UNIT": null, "UNIT_OTHER": null, "UNIT_TYPE": null, "GROUP_CODE": null, "REG_CODE": null, "META_MIDF": null, "NRIS_Refnu": "82003453" }, "geometry": { "type": "Point", "coordinates": [ -80.2469695, 36.0939926 ] } },
{ "type": "Feature", "properties": { "CR_ID": "{0A5A54DF-1E70-462B-81F3-0C5664F4D645}", "SURVEY_ID": null, "GEOM_ID": "{A0235C3C-F29C-4319-ACB1-4DB89286FD4A}", "RESNAME": "Poindexter, H. D., Houses", "BND_TYPE": "Arbitrary point", "BND_OTHER": "Point is unspecified coordinate from NPS NRIS", "IS_EXTANT": "Unknown", "EXTANT_OTH": "Feature is likely but not guaranteed to be extant.  Feature was created as part of batch process from NRIS and status needs to be confirmed individually.", "CONTRIBRES": "Unknown", "RESTRICT": "Unrestricted", "SOURCE": "National Register of Historic Places -- National Park Service", "SRC_DATE": "1978-07-31", "SRC_SCALE": "1:24000", "SRC_ACCU": "+/- 12 meters", "VERT_ERROR": "Not Applicable", "SRC_COORD": "Coordinates are typically provided in UTM format, and datum is assumed GCS_North_American_1927 except for sites in certain locations such as Pacifc Ocean islands.", "MAP_METHOD": "Derived by XY event point or centroid generation", "MAP_MTH_OT": "Coordinates are extracted directly from NPS NRIS and processed from assumed coordinate systems based upon location and CERTDATE via XY Event layers into WGS 84 system.  In some instances, clearly incorrect location data has been manually adjusted.", "CREATEDATE": "2012-08-01", "EDIT_DATE": "2012-08-17", "EDIT_BY": "Matt Stutts, NPS, Cultural Resources GIS", "ORIGINATOR": "National Register of Historic Places -- National Park Service", "CONSTRANT": "Extant status and datum information for resource not recorded by source; coordinate pairs used to generate points not checked for accuracy by source", "CR_NOTES": null, "ALPHA_CODE": null, "UNIT_CODEO": null, "UNIT": null, "UNIT_OTHER": null, "UNIT_TYPE": null, "GROUP_CODE": null, "REG_CODE": null, "META_MIDF": null, "NRIS_Refnu": "78001950" }, "geometry": { "type": "Point", "coordinates": [ -80.2527918, 36.1008811 ] } },
{ "type": "Feature", "properties": { "CR_ID": "{F6A6862F-C49E-44A5-9E98-A6FAE0479192}", "SURVEY_ID": null, "GEOM_ID": "{49956BDE-2C19-4E7D-9E01-4DAA3EF4679D}", "RESNAME": "Shamrock Mills", "BND_TYPE": "Arbitrary point", "BND_OTHER": "Point is unspecified coordinate from NPS NRIS", "IS_EXTANT": "Unknown", "EXTANT_OTH": "Feature is likely but not guaranteed to be extant.  Feature was created as part of batch process from NRIS and status needs to be confirmed individually.", "CONTRIBRES": "Unknown", "RESTRICT": "Unrestricted", "SOURCE": "National Register of Historic Places -- National Park Service", "SRC_DATE": "1978-05-23", "SRC_SCALE": "1:24000", "SRC_ACCU": "+/- 12 meters", "VERT_ERROR": "Not Applicable", "SRC_COORD": "Coordinates are typically provided in UTM format, and datum is assumed GCS_North_American_1927 except for sites in certain locations such as Pacifc Ocean islands.", "MAP_METHOD": "Derived by XY event point or centroid generation", "MAP_MTH_OT": "Coordinates are extracted directly from NPS NRIS and processed from assumed coordinate systems based upon location and CERTDATE via XY Event layers into WGS 84 system.  In some instances, clearly incorrect location data has been manually adjusted.", "CREATEDATE": "2012-08-01", "EDIT_DATE": "2012-08-17", "EDIT_BY": "Matt Stutts, NPS, Cultural Resources GIS", "ORIGINATOR": "National Register of Historic Places -- National Park Service", "CONSTRANT": "Extant status and datum information for resource not recorded by source; coordinate pairs used to generate points not checked for accuracy by source", "CR_NOTES": null, "ALPHA_CODE": null, "UNIT_CODEO": null, "UNIT": null, "UNIT_OTHER": null, "UNIT_TYPE": null, "GROUP_CODE": null, "REG_CODE": null, "META_MIDF": null, "NRIS_Refnu": "78001951" }, "geometry": { "type": "Point", "coordinates": [ -80.2483955, 36.0958949 ] } },
{ "type": "Feature", "properties": { "CR_ID": "{475D8FAC-34D0-4DB9-B9AE-BACB48BF9059}", "SURVEY_ID": null, "GEOM_ID": "{CB6A1A5B-81C9-46C0-9FE4-2912777894D9}", "RESNAME": "Shell Service Station", "BND_TYPE": "Arbitrary point", "BND_OTHER": "Point is unspecified coordinate from NPS NRIS", "IS_EXTANT": "Unknown", "EXTANT_OTH": "Feature is likely but not guaranteed to be extant.  Feature was created as part of batch process from NRIS and status needs to be confirmed individually.", "CONTRIBRES": "Unknown", "RESTRICT": "Unrestricted", "SOURCE": "National Register of Historic Places -- National Park Service", "SRC_DATE": "1976-05-13", "SRC_SCALE": "1:24000", "SRC_ACCU": "+/- 12 meters", "VERT_ERROR": "Not Applicable", "SRC_COORD": "Coordinates are typically provided in UTM format, and datum is assumed GCS_North_American_1927 except for sites in certain locations such as Pacifc Ocean islands.", "MAP_METHOD": "Derived by XY event point or centroid generation", "MAP_MTH_OT": "Coordinates are extracted directly from NPS NRIS and processed from assumed coordinate systems based upon location and CERTDATE via XY Event layers into WGS 84 system.  In some instances, clearly incorrect location data has been manually adjusted.", "CREATEDATE": "2012-08-01", "EDIT_DATE": "2012-08-17", "EDIT_BY": "Matt Stutts, NPS, Cultural Resources GIS", "ORIGINATOR": "National Register of Historic Places -- National Park Service", "CONSTRANT": "Extant status and datum information for resource not recorded by source; coordinate pairs used to generate points not checked for accuracy by source", "CR_NOTES": null, "ALPHA_CODE": null, "UNIT_CODEO": null, "UNIT": null, "UNIT_OTHER": null, "UNIT_TYPE": null, "GROUP_CODE": null, "REG_CODE": null, "META_MIDF": null, "NRIS_Refnu": "76001322" }, "geometry": { "type": "Point", "coordinates": [ -80.2140159, 36.0678154 ] } },
{ "type": "Feature", "properties": { "CR_ID": "{C36719A9-500A-4521-86A7-541CDCCD828B}", "SURVEY_ID": null, "GEOM_ID": "{5B6B063A-A560-4A2A-BA92-0CAD53DB0EC3}", "RESNAME": "Zevely House", "BND_TYPE": "Arbitrary point", "BND_OTHER": "Point is unspecified coordinate from NPS NRIS", "IS_EXTANT": "Unknown", "EXTANT_OTH": "Feature is likely but not guaranteed to be extant.  Feature was created as part of batch process from NRIS and status needs to be confirmed individually.", "CONTRIBRES": "Unknown", "RESTRICT": "Unrestricted", "SOURCE": "National Register of Historic Places -- National Park Service", "SRC_DATE": "1973-04-24", "SRC_SCALE": "1:24000", "SRC_ACCU": "+/- 12 meters", "VERT_ERROR": "Not Applicable", "SRC_COORD": "Coordinates are typically provided in UTM format, and datum is assumed GCS_North_American_1927 except for sites in certain locations such as Pacifc Ocean islands.", "MAP_METHOD": "Derived by XY event point or centroid generation", "MAP_MTH_OT": "Coordinates are extracted directly from NPS NRIS and processed from assumed coordinate systems based upon location and CERTDATE via XY Event layers into WGS 84 system.  In some instances, clearly incorrect location data has been manually adjusted.", "CREATEDATE": "2012-08-01", "EDIT_DATE": "2012-08-17", "EDIT_BY": "Matt Stutts, NPS, Cultural Resources GIS", "ORIGINATOR": "National Register of Historic Places -- National Park Service", "CONSTRANT": "Extant status and datum information for resource not recorded by source; coordinate pairs used to generate points not checked for accuracy by source", "CR_NOTES": null, "ALPHA_CODE": null, "UNIT_CODEO": null, "UNIT": null, "UNIT_OTHER": null, "UNIT_TYPE": null, "GROUP_CODE": null, "REG_CODE": null, "META_MIDF": null, "NRIS_Refnu": "73001341" }, "geometry": { "type": "Point", "coordinates": [ -80.2570487, 36.0971209 ] } },
{ "type": "Feature", "properties": { "CR_ID": "{89CF1430-BE9B-4A2B-BFE5-6D40E5ED4E1C}", "SURVEY_ID": null, "GEOM_ID": "{7C0957C7-D8F5-4DB1-AD82-39E9E33BAE05}", "RESNAME": "Smith, W. F., and Sons Leaf House and Brown Brothers Company Building", "BND_TYPE": "Arbitrary point", "BND_OTHER": "Point is unspecified coordinate from NPS NRIS", "IS_EXTANT": "Unknown", "EXTANT_OTH": "Feature is likely but not guaranteed to be extant.  Feature was created as part of batch process from NRIS and status needs to be confirmed individually.", "CONTRIBRES": "Unknown", "RESTRICT": "Unrestricted", "SOURCE": "National Register of Historic Places -- National Park Service", "SRC_DATE": "1978-02-23", "SRC_SCALE": "1:24000", "SRC_ACCU": "+/- 12 meters", "VERT_ERROR": "Not Applicable", "SRC_COORD": "Coordinates are typically provided in UTM format, and datum is assumed GCS_North_American_1927 except for sites in certain locations such as Pacifc Ocean islands.", "MAP_METHOD": "Derived by XY event point or centroid generation", "MAP_MTH_OT": "Coordinates are extracted directly from NPS NRIS and processed from assumed coordinate systems based upon location and CERTDATE via XY Event layers into WGS 84 system.  In some instances, clearly incorrect location data has been manually adjusted.", "CREATEDATE": "2012-08-01", "EDIT_DATE": "2012-08-17", "EDIT_BY": "Matt Stutts, NPS, Cultural Resources GIS", "ORIGINATOR": "National Register of Historic Places -- National Park Service", "CONSTRANT": "Extant status and datum information for resource not recorded by source; coordinate pairs used to generate points not checked for accuracy by source", "CR_NOTES": null, "ALPHA_CODE": null, "UNIT_CODEO": null, "UNIT": null, "UNIT_OTHER": null, "UNIT_TYPE": null, "GROUP_CODE": null, "REG_CODE": null, "META_MIDF": null, "NRIS_Refnu": "78001952" }, "geometry": { "type": "Point", "coordinates": [ -80.2408056, 36.0996336 ] } },
{ "type": "Feature", "properties": { "CR_ID": "{70EDCA5B-BAAF-4D5B-A93B-F22D0A8E9B1F}", "SURVEY_ID": null, "GEOM_ID": "{82132006-C274-4664-B17D-D5EED8FC509A}", "RESNAME": "Hill, J. S., House", "BND_TYPE": "Arbitrary point", "BND_OTHER": "Point is unspecified coordinate from NPS NRIS", "IS_EXTANT": "Unknown", "EXTANT_OTH": "Feature is likely but not guaranteed to be extant.  Feature was created as part of batch process from NRIS and status needs to be confirmed individually.", "CONTRIBRES": "Unknown", "RESTRICT": "Unrestricted", "SOURCE": "National Register of Historic Places -- National Park Service", "SRC_DATE": "1979-07-22", "SRC_SCALE": "1:24000", "SRC_ACCU": "+/- 12 meters", "VERT_ERROR": "Not Applicable", "SRC_COORD": "Coordinates are typically provided in UTM format, and datum is assumed GCS_North_American_1927 except for sites in certain locations such as Pacifc Ocean islands.", "MAP_METHOD": "Derived by XY event point or centroid generation", "MAP_MTH_OT": "Coordinates are extracted directly from NPS NRIS and processed from assumed coordinate systems based upon location and CERTDATE via XY Event layers into WGS 84 system.  In some instances, clearly incorrect location data has been manually adjusted.", "CREATEDATE": "2012-08-01", "EDIT_DATE": "2012-08-17", "EDIT_BY": "Matt Stutts, NPS, Cultural Resources GIS", "ORIGINATOR": "National Register of Historic Places -- National Park Service", "CONSTRANT": "Extant status and datum information for resource not recorded by source; coordinate pairs used to generate points not checked for accuracy by source", "CR_NOTES": null, "ALPHA_CODE": null, "UNIT_CODEO": null, "UNIT": null, "UNIT_OTHER": null, "UNIT_TYPE": null, "GROUP_CODE": null, "REG_CODE": null, "META_MIDF": null, "NRIS_Refnu": "79001705" }, "geometry": { "type": "Point", "coordinates": [ -80.2277902, 36.0900839 ] } },
{ "type": "Feature", "properties": { "CR_ID": "{4301B40C-D108-49FA-85F6-F67B6FFD8434}", "SURVEY_ID": null, "GEOM_ID": "{EAEE99CB-0B27-4651-AA52-5623AE924DBD}", "RESNAME": "Atkins, S. G., House", "BND_TYPE": "Arbitrary point", "BND_OTHER": "Point is unspecified coordinate from NPS NRIS", "IS_EXTANT": "Unknown", "EXTANT_OTH": "Feature is likely but not guaranteed to be extant.  Feature was created as part of batch process from NRIS and status needs to be confirmed individually.", "CONTRIBRES": "Unknown", "RESTRICT": "Unrestricted", "SOURCE": "National Register of Historic Places -- National Park Service", "SRC_DATE": "1979-07-22", "SRC_SCALE": "1:24000", "SRC_ACCU": "+/- 12 meters", "VERT_ERROR": "Not Applicable", "SRC_COORD": "Coordinates are typically provided in UTM format, and datum is assumed GCS_North_American_1927 except for sites in certain locations such as Pacifc Ocean islands.", "MAP_METHOD": "Derived by XY event point or centroid generation", "MAP_MTH_OT": "Coordinates are extracted directly from NPS NRIS and processed from assumed coordinate systems based upon location and CERTDATE via XY Event layers into WGS 84 system.  In some instances, clearly incorrect location data has been manually adjusted.", "CREATEDATE": "2012-08-01", "EDIT_DATE": "2012-08-17", "EDIT_BY": "Matt Stutts, NPS, Cultural Resources GIS", "ORIGINATOR": "National Register of Historic Places -- National Park Service", "CONSTRANT": "Extant status and datum information for resource not recorded by source; coordinate pairs used to generate points not checked for accuracy by source", "CR_NOTES": null, "ALPHA_CODE": null, "UNIT_CODEO": null, "UNIT": null, "UNIT_OTHER": null, "UNIT_TYPE": null, "GROUP_CODE": null, "REG_CODE": null, "META_MIDF": null, "NRIS_Refnu": "79001704" }, "geometry": { "type": "Point", "coordinates": [ -80.228878, 36.092435 ] } },
{ "type": "Feature", "properties": { "CR_ID": "{036608D9-D4CF-45EE-96E6-1E6B5932B260}", "SURVEY_ID": null, "GEOM_ID": "{21B0C51B-5EBF-411E-A6C9-DFFBA644BB12}", "RESNAME": "Paisley J. W., House", "BND_TYPE": "Arbitrary point", "BND_OTHER": "Point is unspecified coordinate from NPS NRIS", "IS_EXTANT": "Unknown", "EXTANT_OTH": "Feature is likely but not guaranteed to be extant.  Feature was created as part of batch process from NRIS and status needs to be confirmed individually.", "CONTRIBRES": "Unknown", "RESTRICT": "Unrestricted", "SOURCE": "National Register of Historic Places -- National Park Service", "SRC_DATE": "1979-07-22", "SRC_SCALE": "1:24000", "SRC_ACCU": "+/- 12 meters", "VERT_ERROR": "Not Applicable", "SRC_COORD": "Coordinates are typically provided in UTM format, and datum is assumed GCS_North_American_1927 except for sites in certain locations such as Pacifc Ocean islands.", "MAP_METHOD": "Derived by XY event point or centroid generation", "MAP_MTH_OT": "Coordinates are extracted directly from NPS NRIS and processed from assumed coordinate systems based upon location and CERTDATE via XY Event layers into WGS 84 system.  In some instances, clearly incorrect location data has been manually adjusted.", "CREATEDATE": "2012-08-01", "EDIT_DATE": "2012-08-17", "EDIT_BY": "Matt Stutts, NPS, Cultural Resources GIS", "ORIGINATOR": "National Register of Historic Places -- National Park Service", "CONSTRANT": "Extant status and datum information for resource not recorded by source; coordinate pairs used to generate points not checked for accuracy by source", "CR_NOTES": null, "ALPHA_CODE": null, "UNIT_CODEO": null, "UNIT": null, "UNIT_OTHER": null, "UNIT_TYPE": null, "GROUP_CODE": null, "REG_CODE": null, "META_MIDF": null, "NRIS_Refnu": "79001706" }, "geometry": { "type": "Point", "coordinates": [ -80.2269016, 36.0900781 ] } },
{ "type": "Feature", "properties": { "CR_ID": "{E4280A5D-E621-4E07-9FA4-59412E62FC6D}", "SURVEY_ID": null, "GEOM_ID": "{B3CB831C-E95C-41BB-BF8B-876C2DD8B576}", "RESNAME": "Ludlow, Col. Jacob Lott, House", "BND_TYPE": "Arbitrary point", "BND_OTHER": "Point is unspecified coordinate from NPS NRIS", "IS_EXTANT": "Unknown", "EXTANT_OTH": "Feature is likely but not guaranteed to be extant.  Feature was created as part of batch process from NRIS and status needs to be confirmed individually.", "CONTRIBRES": "Unknown", "RESTRICT": "Unrestricted", "SOURCE": "National Register of Historic Places -- National Park Service", "SRC_DATE": "1983-03-17", "SRC_SCALE": "1:24000", "SRC_ACCU": "+/- 12 meters", "VERT_ERROR": "Not Applicable", "SRC_COORD": "Coordinates are typically provided in UTM format, and datum is assumed GCS_North_American_1927 except for sites in certain locations such as Pacifc Ocean islands.", "MAP_METHOD": "Derived by XY event point or centroid generation", "MAP_MTH_OT": "Coordinates are extracted directly from NPS NRIS and processed from assumed coordinate systems based upon location and CERTDATE via XY Event layers into WGS 84 system.  In some instances, clearly incorrect location data has been manually adjusted.", "CREATEDATE": "2012-08-01", "EDIT_DATE": "2012-08-17", "EDIT_BY": "Matt Stutts, NPS, Cultural Resources GIS", "ORIGINATOR": "National Register of Historic Places -- National Park Service", "CONSTRANT": "Extant status and datum information for resource not recorded by source; coordinate pairs used to generate points not checked for accuracy by source", "CR_NOTES": null, "ALPHA_CODE": null, "UNIT_CODEO": null, "UNIT": null, "UNIT_OTHER": null, "UNIT_TYPE": null, "GROUP_CODE": null, "REG_CODE": null, "META_MIDF": null, "NRIS_Refnu": "83001879" }, "geometry": { "type": "Point", "coordinates": [ -80.2571496, 36.0982034 ] } },
{ "type": "Feature", "properties": { "CR_ID": "{D1225364-52C0-4001-9B3B-5028E05229C7}", "SURVEY_ID": null, "GEOM_ID": "{F6058D4F-4109-4EC7-AC7B-C833A241C39A}", "RESNAME": "Conrad--Starbuck House", "BND_TYPE": "Arbitrary point", "BND_OTHER": "Point is unspecified coordinate from NPS NRIS", "IS_EXTANT": "Unknown", "EXTANT_OTH": "Feature is likely but not guaranteed to be extant.  Feature was created as part of batch process from NRIS and status needs to be confirmed individually.", "CONTRIBRES": "Unknown", "RESTRICT": "Unrestricted", "SOURCE": "National Register of Historic Places -- National Park Service", "SRC_DATE": "1990-06-04", "SRC_SCALE": "1:24000", "SRC_ACCU": "+/- 12 meters", "VERT_ERROR": "Not Applicable", "SRC_COORD": "Coordinates are typically provided in UTM format, and datum is assumed GCS_North_American_1927 except for sites in certain locations such as Pacifc Ocean islands.", "MAP_METHOD": "Derived by XY event point or centroid generation", "MAP_MTH_OT": "Coordinates are extracted directly from NPS NRIS and processed from assumed coordinate systems based upon location and CERTDATE via XY Event layers into WGS 84 system.  In some instances, clearly incorrect location data has been manually adjusted.", "CREATEDATE": "2012-08-01", "EDIT_DATE": "2012-08-17", "EDIT_BY": "Matt Stutts, NPS, Cultural Resources GIS", "ORIGINATOR": "National Register of Historic Places -- National Park Service", "CONSTRANT": "Extant status and datum information for resource not recorded by source; coordinate pairs used to generate points not checked for accuracy by source", "CR_NOTES": null, "ALPHA_CODE": null, "UNIT_CODEO": null, "UNIT": null, "UNIT_OTHER": null, "UNIT_TYPE": null, "GROUP_CODE": null, "REG_CODE": null, "META_MIDF": null, "NRIS_Refnu": "90000792" }, "geometry": { "type": "Point", "coordinates": [ -80.2468636, 36.093451 ] } },
{ "type": "Feature", "properties": { "CR_ID": "{90140105-02BB-4E21-9C2D-19DFDA7F6116}", "SURVEY_ID": null, "GEOM_ID": "{1E0BC7FD-FBC2-42D0-B97D-5724BF318D2E}", "RESNAME": "Brickenstein--Leinbach House", "BND_TYPE": "Arbitrary point", "BND_OTHER": "Point is unspecified coordinate from NPS NRIS", "IS_EXTANT": "Unknown", "EXTANT_OTH": "Feature is likely but not guaranteed to be extant.  Feature was created as part of batch process from NRIS and status needs to be confirmed individually.", "CONTRIBRES": "Unknown", "RESTRICT": "Unrestricted", "SOURCE": "National Register of Historic Places -- National Park Service", "SRC_DATE": "1991-09-03", "SRC_SCALE": "1:24000", "SRC_ACCU": "+/- 12 meters", "VERT_ERROR": "Not Applicable", "SRC_COORD": "Coordinates are typically provided in UTM format, and datum is assumed GCS_North_American_1927 except for sites in certain locations such as Pacifc Ocean islands.", "MAP_METHOD": "Derived by XY event point or centroid generation", "MAP_MTH_OT": "Coordinates are extracted directly from NPS NRIS and processed from assumed coordinate systems based upon location and CERTDATE via XY Event layers into WGS 84 system.  In some instances, clearly incorrect location data has been manually adjusted.", "CREATEDATE": "2012-08-01", "EDIT_DATE": "2012-08-17", "EDIT_BY": "Matt Stutts, NPS, Cultural Resources GIS", "ORIGINATOR": "National Register of Historic Places -- National Park Service", "CONSTRANT": "Extant status and datum information for resource not recorded by source; coordinate pairs used to generate points not checked for accuracy by source", "CR_NOTES": null, "ALPHA_CODE": null, "UNIT_CODEO": null, "UNIT": null, "UNIT_OTHER": null, "UNIT_TYPE": null, "GROUP_CODE": null, "REG_CODE": null, "META_MIDF": null, "NRIS_Refnu": "91001169" }, "geometry": { "type": "Point", "coordinates": [ -80.244228, 36.0902789 ] } },
{ "type": "Feature", "properties": { "CR_ID": "{011E9CB8-FF61-40C4-8482-222D1DE84B9E}", "SURVEY_ID": null, "GEOM_ID": "{BDE9DB6E-DD44-4678-867D-B7128070E470}", "RESNAME": "St. Philip's Moravian Church", "BND_TYPE": "Arbitrary point", "BND_OTHER": "Point is unspecified coordinate from NPS NRIS", "IS_EXTANT": "Unknown", "EXTANT_OTH": "Feature is likely but not guaranteed to be extant.  Feature was created as part of batch process from NRIS and status needs to be confirmed individually.", "CONTRIBRES": "Unknown", "RESTRICT": "Unrestricted", "SOURCE": "National Register of Historic Places -- National Park Service", "SRC_DATE": "1991-09-03", "SRC_SCALE": "1:24000", "SRC_ACCU": "+/- 12 meters", "VERT_ERROR": "Not Applicable", "SRC_COORD": "Coordinates are typically provided in UTM format, and datum is assumed GCS_North_American_1927 except for sites in certain locations such as Pacifc Ocean islands.", "MAP_METHOD": "Derived by XY event point or centroid generation", "MAP_MTH_OT": "Coordinates are extracted directly from NPS NRIS and processed from assumed coordinate systems based upon location and CERTDATE via XY Event layers into WGS 84 system.  In some instances, clearly incorrect location data has been manually adjusted.", "CREATEDATE": "2012-08-01", "EDIT_DATE": "2012-08-17", "EDIT_BY": "Matt Stutts, NPS, Cultural Resources GIS", "ORIGINATOR": "National Register of Historic Places -- National Park Service", "CONSTRANT": "Extant status and datum information for resource not recorded by source; coordinate pairs used to generate points not checked for accuracy by source", "CR_NOTES": null, "ALPHA_CODE": null, "UNIT_CODEO": null, "UNIT": null, "UNIT_OTHER": null, "UNIT_TYPE": null, "GROUP_CODE": null, "REG_CODE": null, "META_MIDF": null, "NRIS_Refnu": "91001170" }, "geometry": { "type": "Point", "coordinates": [ -80.240507, 36.0844852 ] } },
{ "type": "Feature", "properties": { "CR_ID": "{4098DC99-D376-419F-A6B6-F0BBF6F150D8}", "SURVEY_ID": null, "GEOM_ID": "{EB500439-30F6-45DE-9254-4359D3A36555}", "RESNAME": "Winston-Salem Southbound Railway Freight Warehouse and Office", "BND_TYPE": "Arbitrary point", "BND_OTHER": "Point is unspecified coordinate from NPS NRIS", "IS_EXTANT": "Unknown", "EXTANT_OTH": "Feature is likely but not guaranteed to be extant.  Feature was created as part of batch process from NRIS and status needs to be confirmed individually.", "CONTRIBRES": "Unknown", "RESTRICT": "Unrestricted", "SOURCE": "National Register of Historic Places -- National Park Service", "SRC_DATE": "1991-11-29", "SRC_SCALE": "1:24000", "SRC_ACCU": "+/- 12 meters", "VERT_ERROR": "Not Applicable", "SRC_COORD": "Coordinates are typically provided in UTM format, and datum is assumed GCS_North_American_1927 except for sites in certain locations such as Pacifc Ocean islands.", "MAP_METHOD": "Derived by XY event point or centroid generation", "MAP_MTH_OT": "Coordinates are extracted directly from NPS NRIS and processed from assumed coordinate systems based upon location and CERTDATE via XY Event layers into WGS 84 system.  In some instances, clearly incorrect location data has been manually adjusted.", "CREATEDATE": "2012-08-01", "EDIT_DATE": "2012-08-17", "EDIT_BY": "Matt Stutts, NPS, Cultural Resources GIS", "ORIGINATOR": "National Register of Historic Places -- National Park Service", "CONSTRANT": "Extant status and datum information for resource not recorded by source; coordinate pairs used to generate points not checked for accuracy by source", "CR_NOTES": null, "ALPHA_CODE": null, "UNIT_CODEO": null, "UNIT": null, "UNIT_OTHER": null, "UNIT_TYPE": null, "GROUP_CODE": null, "REG_CODE": null, "META_MIDF": null, "NRIS_Refnu": "91001747" }, "geometry": { "type": "Point", "coordinates": [ -80.2441014, 36.0919009 ] } },
{ "type": "Feature", "properties": { "CR_ID": "{FF6D858D-8DC3-4DA9-971C-814055D44AF7}", "SURVEY_ID": null, "GEOM_ID": "{E7451105-D5C2-49F9-98A0-E0F6E47CCB8F}", "RESNAME": "Lloyd Presbyterian Church", "BND_TYPE": "Arbitrary point", "BND_OTHER": "Point is unspecified coordinate from NPS NRIS", "IS_EXTANT": "Unknown", "EXTANT_OTH": "Feature is likely but not guaranteed to be extant.  Feature was created as part of batch process from NRIS and status needs to be confirmed individually.", "CONTRIBRES": "Unknown", "RESTRICT": "Unrestricted", "SOURCE": "National Register of Historic Places -- National Park Service", "SRC_DATE": "1998-06-26", "SRC_SCALE": "1:24000", "SRC_ACCU": "+/- 12 meters", "VERT_ERROR": "Not Applicable", "SRC_COORD": "Coordinates are typically provided in UTM format, and datum is assumed GCS_North_American_1927 except for sites in certain locations such as Pacifc Ocean islands.", "MAP_METHOD": "Derived by XY event point or centroid generation", "MAP_MTH_OT": "Coordinates are extracted directly from NPS NRIS and processed from assumed coordinate systems based upon location and CERTDATE via XY Event layers into WGS 84 system.  In some instances, clearly incorrect location data has been manually adjusted.", "CREATEDATE": "2012-08-01", "EDIT_DATE": "2012-08-17", "EDIT_BY": "Matt Stutts, NPS, Cultural Resources GIS", "ORIGINATOR": "National Register of Historic Places -- National Park Service", "CONSTRANT": "Extant status and datum information for resource not recorded by source; coordinate pairs used to generate points not checked for accuracy by source", "CR_NOTES": null, "ALPHA_CODE": null, "UNIT_CODEO": null, "UNIT": null, "UNIT_OTHER": null, "UNIT_TYPE": null, "GROUP_CODE": null, "REG_CODE": null, "META_MIDF": null, "NRIS_Refnu": "98000728" }, "geometry": { "type": "Point", "coordinates": [ -80.2422108, 36.1036996 ] } },
{ "type": "Feature", "properties": { "CR_ID": "{9D7E284F-4F26-4FE3-A5CC-9282D1B9AA58}", "SURVEY_ID": null, "GEOM_ID": "{2321E892-49D7-4B42-991D-7643C498AE48}", "RESNAME": "Goler Memorial African Methodist Episcopal Zion Church", "BND_TYPE": "Arbitrary point", "BND_OTHER": "Point is unspecified coordinate from NPS NRIS", "IS_EXTANT": "Unknown", "EXTANT_OTH": "Feature is likely but not guaranteed to be extant.  Feature was created as part of batch process from NRIS and status needs to be confirmed individually.", "CONTRIBRES": "Unknown", "RESTRICT": "Unrestricted", "SOURCE": "National Register of Historic Places -- National Park Service", "SRC_DATE": "1998-06-26", "SRC_SCALE": "1:24000", "SRC_ACCU": "+/- 12 meters", "VERT_ERROR": "Not Applicable", "SRC_COORD": "Coordinates are typically provided in UTM format, and datum is assumed GCS_North_American_1927 except for sites in certain locations such as Pacifc Ocean islands.", "MAP_METHOD": "Derived by XY event point or centroid generation", "MAP_MTH_OT": "Coordinates are extracted directly from NPS NRIS and processed from assumed coordinate systems based upon location and CERTDATE via XY Event layers into WGS 84 system.  In some instances, clearly incorrect location data has been manually adjusted.", "CREATEDATE": "2012-08-01", "EDIT_DATE": "2012-08-17", "EDIT_BY": "Matt Stutts, NPS, Cultural Resources GIS", "ORIGINATOR": "National Register of Historic Places -- National Park Service", "CONSTRANT": "Extant status and datum information for resource not recorded by source; coordinate pairs used to generate points not checked for accuracy by source", "CR_NOTES": null, "ALPHA_CODE": null, "UNIT_CODEO": null, "UNIT": null, "UNIT_OTHER": null, "UNIT_TYPE": null, "GROUP_CODE": null, "REG_CODE": null, "META_MIDF": null, "NRIS_Refnu": "98000727" }, "geometry": { "type": "Point", "coordinates": [ -80.2414453, 36.1024326 ] } },
{ "type": "Feature", "properties": { "CR_ID": "{0DD2092A-6C41-491B-8ACE-1736069AC2ED}", "SURVEY_ID": null, "GEOM_ID": "{17188CEE-1E5D-4889-A497-1B670B5878F8}", "RESNAME": "Craver Apartment Building", "BND_TYPE": "Arbitrary point", "BND_OTHER": "Point is unspecified coordinate from NPS NRIS", "IS_EXTANT": "Unknown", "EXTANT_OTH": "Feature is likely but not guaranteed to be extant.  Feature was created as part of batch process from NRIS and status needs to be confirmed individually.", "CONTRIBRES": "Unknown", "RESTRICT": "Unrestricted", "SOURCE": "National Register of Historic Places -- National Park Service", "SRC_DATE": "1998-06-26", "SRC_SCALE": "1:24000", "SRC_ACCU": "+/- 12 meters", "VERT_ERROR": "Not Applicable", "SRC_COORD": "Coordinates are typically provided in UTM format, and datum is assumed GCS_North_American_1927 except for sites in certain locations such as Pacifc Ocean islands.", "MAP_METHOD": "Derived by XY event point or centroid generation", "MAP_MTH_OT": "Coordinates are extracted directly from NPS NRIS and processed from assumed coordinate systems based upon location and CERTDATE via XY Event layers into WGS 84 system.  In some instances, clearly incorrect location data has been manually adjusted.", "CREATEDATE": "2012-08-01", "EDIT_DATE": "2012-08-17", "EDIT_BY": "Matt Stutts, NPS, Cultural Resources GIS", "ORIGINATOR": "National Register of Historic Places -- National Park Service", "CONSTRANT": "Extant status and datum information for resource not recorded by source; coordinate pairs used to generate points not checked for accuracy by source", "CR_NOTES": null, "ALPHA_CODE": null, "UNIT_CODEO": null, "UNIT": null, "UNIT_OTHER": null, "UNIT_TYPE": null, "GROUP_CODE": null, "REG_CODE": null, "META_MIDF": null, "NRIS_Refnu": "98000726" }, "geometry": { "type": "Point", "coordinates": [ -80.2421622, 36.1029781 ] } },
{ "type": "Feature", "properties": { "CR_ID": "{CA79608A-0394-4D91-8ED4-BA4C0124D04C}", "SURVEY_ID": null, "GEOM_ID": "{7EC16005-F503-4C56-867F-6B280690A59C}", "RESNAME": "Brown, W.C., Apartment Building", "BND_TYPE": "Arbitrary point", "BND_OTHER": "Point is unspecified coordinate from NPS NRIS", "IS_EXTANT": "Unknown", "EXTANT_OTH": "Feature is likely but not guaranteed to be extant.  Feature was created as part of batch process from NRIS and status needs to be confirmed individually.", "CONTRIBRES": "Unknown", "RESTRICT": "Unrestricted", "SOURCE": "National Register of Historic Places -- National Park Service", "SRC_DATE": "1998-06-26", "SRC_SCALE": "1:24000", "SRC_ACCU": "+/- 12 meters", "VERT_ERROR": "Not Applicable", "SRC_COORD": "Coordinates are typically provided in UTM format, and datum is assumed GCS_North_American_1927 except for sites in certain locations such as Pacifc Ocean islands.", "MAP_METHOD": "Derived by XY event point or centroid generation", "MAP_MTH_OT": "Coordinates are extracted directly from NPS NRIS and processed from assumed coordinate systems based upon location and CERTDATE via XY Event layers into WGS 84 system.  In some instances, clearly incorrect location data has been manually adjusted.", "CREATEDATE": "2012-08-01", "EDIT_DATE": "2012-08-17", "EDIT_BY": "Matt Stutts, NPS, Cultural Resources GIS", "ORIGINATOR": "National Register of Historic Places -- National Park Service", "CONSTRANT": "Extant status and datum information for resource not recorded by source; coordinate pairs used to generate points not checked for accuracy by source", "CR_NOTES": null, "ALPHA_CODE": null, "UNIT_CODEO": null, "UNIT": null, "UNIT_OTHER": null, "UNIT_TYPE": null, "GROUP_CODE": null, "REG_CODE": null, "META_MIDF": null, "NRIS_Refnu": "98000725" }, "geometry": { "type": "Point", "coordinates": [ -80.240777, 36.1026087 ] } },
{ "type": "Feature", "properties": { "CR_ID": "{28929FDF-CF8E-4B04-8BB9-DC009D1E91A2}", "SURVEY_ID": null, "GEOM_ID": "{F200BD33-05BF-4744-90B4-19B363A08D4D}", "RESNAME": "Robinson, A., Building", "BND_TYPE": "Arbitrary point", "BND_OTHER": "Point is unspecified coordinate from NPS NRIS", "IS_EXTANT": "Unknown", "EXTANT_OTH": "Feature is likely but not guaranteed to be extant.  Feature was created as part of batch process from NRIS and status needs to be confirmed individually.", "CONTRIBRES": "Unknown", "RESTRICT": "Unrestricted", "SOURCE": "National Register of Historic Places -- National Park Service", "SRC_DATE": "1998-06-26", "SRC_SCALE": "1:24000", "SRC_ACCU": "+/- 12 meters", "VERT_ERROR": "Not Applicable", "SRC_COORD": "Coordinates are typically provided in UTM format, and datum is assumed GCS_North_American_1927 except for sites in certain locations such as Pacifc Ocean islands.", "MAP_METHOD": "Derived by XY event point or centroid generation", "MAP_MTH_OT": "Coordinates are extracted directly from NPS NRIS and processed from assumed coordinate systems based upon location and CERTDATE via XY Event layers into WGS 84 system.  In some instances, clearly incorrect location data has been manually adjusted.", "CREATEDATE": "2012-08-01", "EDIT_DATE": "2012-08-17", "EDIT_BY": "Matt Stutts, NPS, Cultural Resources GIS", "ORIGINATOR": "National Register of Historic Places -- National Park Service", "CONSTRANT": "Extant status and datum information for resource not recorded by source; coordinate pairs used to generate points not checked for accuracy by source", "CR_NOTES": null, "ALPHA_CODE": null, "UNIT_CODEO": null, "UNIT": null, "UNIT_OTHER": null, "UNIT_TYPE": null, "GROUP_CODE": null, "REG_CODE": null, "META_MIDF": null, "NRIS_Refnu": "98000729" }, "geometry": { "type": "Point", "coordinates": [ -80.2409957, 36.1029707 ] } },
{ "type": "Feature", "properties": { "CR_ID": "{6BCF7FA7-BAC4-49CC-950F-DEB5C04FA810}", "SURVEY_ID": null, "GEOM_ID": "{1BA6AEB5-86DE-4CA9-9C3F-9F251DB73F3F}", "RESNAME": "Union Station", "BND_TYPE": "Arbitrary point", "BND_OTHER": "Point is unspecified coordinate from NPS NRIS", "IS_EXTANT": "Unknown", "EXTANT_OTH": "Feature is likely but not guaranteed to be extant.  Feature was created as part of batch process from NRIS and status needs to be confirmed individually.", "CONTRIBRES": "Unknown", "RESTRICT": "Unrestricted", "SOURCE": "National Register of Historic Places -- National Park Service", "SRC_DATE": "1998-12-24", "SRC_SCALE": "1:24000", "SRC_ACCU": "+/- 12 meters", "VERT_ERROR": "Not Applicable", "SRC_COORD": "Coordinates are typically provided in UTM format, and datum is assumed GCS_North_American_1927 except for sites in certain locations such as Pacifc Ocean islands.", "MAP_METHOD": "Derived by XY event point or centroid generation", "MAP_MTH_OT": "Coordinates are extracted directly from NPS NRIS and processed from assumed coordinate systems based upon location and CERTDATE via XY Event layers into WGS 84 system.  In some instances, clearly incorrect location data has been manually adjusted.", "CREATEDATE": "2012-08-01", "EDIT_DATE": "2012-08-17", "EDIT_BY": "Matt Stutts, NPS, Cultural Resources GIS", "ORIGINATOR": "National Register of Historic Places -- National Park Service", "CONSTRANT": "Extant status and datum information for resource not recorded by source; coordinate pairs used to generate points not checked for accuracy by source", "CR_NOTES": null, "ALPHA_CODE": null, "UNIT_CODEO": null, "UNIT": null, "UNIT_OTHER": null, "UNIT_TYPE": null, "GROUP_CODE": null, "REG_CODE": null, "META_MIDF": null, "NRIS_Refnu": "98001547" }, "geometry": { "type": "Point", "coordinates": [ -80.2282027, 36.0933322 ] } },
{ "type": "Feature", "properties": { "CR_ID": "{BA4254BB-BBE6-4853-9985-AF1725CD5E25}", "SURVEY_ID": null, "GEOM_ID": "{3637A8B0-B8D0-4129-A4CB-0C1AA8D6E105}", "RESNAME": "Goler Metropolitan AME Zion Church", "BND_TYPE": "Arbitrary point", "BND_OTHER": "Point is unspecified coordinate from NPS NRIS", "IS_EXTANT": "Unknown", "EXTANT_OTH": "Feature is likely but not guaranteed to be extant.  Feature was created as part of batch process from NRIS and status needs to be confirmed individually.", "CONTRIBRES": "Unknown", "RESTRICT": "Unrestricted", "SOURCE": "National Register of Historic Places -- National Park Service", "SRC_DATE": "1999-01-27", "SRC_SCALE": "1:24000", "SRC_ACCU": "+/- 12 meters", "VERT_ERROR": "Not Applicable", "SRC_COORD": "Coordinates are typically provided in UTM format, and datum is assumed GCS_North_American_1927 except for sites in certain locations such as Pacifc Ocean islands.", "MAP_METHOD": "Derived by XY event point or centroid generation", "MAP_MTH_OT": "Coordinates are extracted directly from NPS NRIS and processed from assumed coordinate systems based upon location and CERTDATE via XY Event layers into WGS 84 system.  In some instances, clearly incorrect location data has been manually adjusted.", "CREATEDATE": "2012-08-01", "EDIT_DATE": "2012-08-17", "EDIT_BY": "Matt Stutts, NPS, Cultural Resources GIS", "ORIGINATOR": "National Register of Historic Places -- National Park Service", "CONSTRANT": "Extant status and datum information for resource not recorded by source; coordinate pairs used to generate points not checked for accuracy by source", "CR_NOTES": null, "ALPHA_CODE": null, "UNIT_CODEO": null, "UNIT": null, "UNIT_OTHER": null, "UNIT_TYPE": null, "GROUP_CODE": null, "REG_CODE": null, "META_MIDF": null, "NRIS_Refnu": "99000060" }, "geometry": { "type": "Point", "coordinates": [ -80.2271421, 36.0995463 ] } },
{ "type": "Feature", "properties": { "CR_ID": "{3B0AD8DC-CFCF-44E4-A4D6-FEC7ECEECB57}", "SURVEY_ID": null, "GEOM_ID": "{F9457616-F55E-4D2F-82B4-3702780F2ABB}", "RESNAME": "Mars Hill Baptist Church", "BND_TYPE": "Arbitrary point", "BND_OTHER": "Point is unspecified coordinate from NPS NRIS", "IS_EXTANT": "Unknown", "EXTANT_OTH": "Feature is likely but not guaranteed to be extant.  Feature was created as part of batch process from NRIS and status needs to be confirmed individually.", "CONTRIBRES": "Unknown", "RESTRICT": "Unrestricted", "SOURCE": "National Register of Historic Places -- National Park Service", "SRC_DATE": "1999-01-27", "SRC_SCALE": "1:24000", "SRC_ACCU": "+/- 12 meters", "VERT_ERROR": "Not Applicable", "SRC_COORD": "Coordinates are typically provided in UTM format, and datum is assumed GCS_North_American_1927 except for sites in certain locations such as Pacifc Ocean islands.", "MAP_METHOD": "Derived by XY event point or centroid generation", "MAP_MTH_OT": "Coordinates are extracted directly from NPS NRIS and processed from assumed coordinate systems based upon location and CERTDATE via XY Event layers into WGS 84 system.  In some instances, clearly incorrect location data has been manually adjusted.", "CREATEDATE": "2012-08-01", "EDIT_DATE": "2012-08-17", "EDIT_BY": "Matt Stutts, NPS, Cultural Resources GIS", "ORIGINATOR": "National Register of Historic Places -- National Park Service", "CONSTRANT": "Extant status and datum information for resource not recorded by source; coordinate pairs used to generate points not checked for accuracy by source", "CR_NOTES": null, "ALPHA_CODE": null, "UNIT_CODEO": null, "UNIT": null, "UNIT_OTHER": null, "UNIT_TYPE": null, "GROUP_CODE": null, "REG_CODE": null, "META_MIDF": null, "NRIS_Refnu": "99000061" }, "geometry": { "type": "Point", "coordinates": [ -80.2292527, 36.0995599 ] } },
{ "type": "Feature", "properties": { "CR_ID": "{D4C061C5-863A-443A-BBFF-F7229871AD6A}", "SURVEY_ID": null, "GEOM_ID": "{170FC0E7-1F7A-4F45-8529-DF9BEFC30D31}", "RESNAME": "Indera Mills", "BND_TYPE": "Arbitrary point", "BND_OTHER": "Point is unspecified coordinate from NPS NRIS", "IS_EXTANT": "Unknown", "EXTANT_OTH": "Feature is likely but not guaranteed to be extant.  Feature was created as part of batch process from NRIS and status needs to be confirmed individually.", "CONTRIBRES": "Unknown", "RESTRICT": "Unrestricted", "SOURCE": "National Register of Historic Places -- National Park Service", "SRC_DATE": "1999-07-15", "SRC_SCALE": "1:24000", "SRC_ACCU": "+/- 12 meters", "VERT_ERROR": "Not Applicable", "SRC_COORD": "Coordinates are typically provided in UTM format, and datum is assumed GCS_North_American_1927 except for sites in certain locations such as Pacifc Ocean islands.", "MAP_METHOD": "Derived by XY event point or centroid generation", "MAP_MTH_OT": "Coordinates are extracted directly from NPS NRIS and processed from assumed coordinate systems based upon location and CERTDATE via XY Event layers into WGS 84 system.  In some instances, clearly incorrect location data has been manually adjusted.", "CREATEDATE": "2012-08-01", "EDIT_DATE": "2012-08-17", "EDIT_BY": "Matt Stutts, NPS, Cultural Resources GIS", "ORIGINATOR": "National Register of Historic Places -- National Park Service", "CONSTRANT": "Extant status and datum information for resource not recorded by source; coordinate pairs used to generate points not checked for accuracy by source", "CR_NOTES": null, "ALPHA_CODE": null, "UNIT_CODEO": null, "UNIT": null, "UNIT_OTHER": null, "UNIT_TYPE": null, "GROUP_CODE": null, "REG_CODE": null, "META_MIDF": null, "NRIS_Refnu": "99000843" }, "geometry": { "type": "Point", "coordinates": [ -80.2470108, 36.0896653 ] } },
{ "type": "Feature", "properties": { "CR_ID": "{0C3D0E9D-5F64-48C7-B5E0-D5DD650E0813}", "SURVEY_ID": null, "GEOM_ID": "{726F9545-545C-403F-B64D-98EFECC53EE5}", "RESNAME": "Black, George, House and Brickyard", "BND_TYPE": "Arbitrary point", "BND_OTHER": "Point is unspecified coordinate from NPS NRIS", "IS_EXTANT": "Unknown", "EXTANT_OTH": "Feature is likely but not guaranteed to be extant.  Feature was created as part of batch process from NRIS and status needs to be confirmed individually.", "CONTRIBRES": "Unknown", "RESTRICT": "Unrestricted", "SOURCE": "National Register of Historic Places -- National Park Service", "SRC_DATE": "2000-01-28", "SRC_SCALE": "1:24000", "SRC_ACCU": "+/- 12 meters", "VERT_ERROR": "Not Applicable", "SRC_COORD": "Coordinates are typically provided in UTM format, and datum is assumed GCS_North_American_1927 except for sites in certain locations such as Pacifc Ocean islands.", "MAP_METHOD": "Derived by XY event point or centroid generation", "MAP_MTH_OT": "Coordinates are extracted directly from NPS NRIS and processed from assumed coordinate systems based upon location and CERTDATE via XY Event layers into WGS 84 system.  In some instances, clearly incorrect location data has been manually adjusted.", "CREATEDATE": "2012-08-01", "EDIT_DATE": "2012-08-17", "EDIT_BY": "Matt Stutts, NPS, Cultural Resources GIS", "ORIGINATOR": "National Register of Historic Places -- National Park Service", "CONSTRANT": "Extant status and datum information for resource not recorded by source; coordinate pairs used to generate points not checked for accuracy by source", "CR_NOTES": null, "ALPHA_CODE": null, "UNIT_CODEO": null, "UNIT": null, "UNIT_OTHER": null, "UNIT_TYPE": null, "GROUP_CODE": null, "REG_CODE": null, "META_MIDF": null, "NRIS_Refnu": "99001683" }, "geometry": { "type": "Point", "coordinates": [ -80.2095618, 36.113406 ] } },
{ "type": "Feature", "properties": { "CR_ID": "{2267C9BA-ACF1-4899-B7D2-A303045DDEEB}", "SURVEY_ID": null, "GEOM_ID": "{800BE85A-D178-4CBC-9A42-2A15E6B672E4}", "RESNAME": "Middleton House", "BND_TYPE": "Arbitrary point", "BND_OTHER": "Point is unspecified coordinate from NPS NRIS", "IS_EXTANT": "Unknown", "EXTANT_OTH": "Feature is likely but not guaranteed to be extant.  Feature was created as part of batch process from NRIS and status needs to be confirmed individually.", "CONTRIBRES": "Unknown", "RESTRICT": "Unrestricted", "SOURCE": "National Register of Historic Places -- National Park Service", "SRC_DATE": "2000-12-28", "SRC_SCALE": "1:24000", "SRC_ACCU": "+/- 12 meters", "VERT_ERROR": "Not Applicable", "SRC_COORD": "Coordinates are typically provided in UTM format, and datum is assumed GCS_North_American_1927 except for sites in certain locations such as Pacifc Ocean islands.", "MAP_METHOD": "Derived by XY event point or centroid generation", "MAP_MTH_OT": "Coordinates are extracted directly from NPS NRIS and processed from assumed coordinate systems based upon location and CERTDATE via XY Event layers into WGS 84 system.  In some instances, clearly incorrect location data has been manually adjusted.", "CREATEDATE": "2012-08-01", "EDIT_DATE": "2012-08-17", "EDIT_BY": "Matt Stutts, NPS, Cultural Resources GIS", "ORIGINATOR": "National Register of Historic Places -- National Park Service", "CONSTRANT": "Extant status and datum information for resource not recorded by source; coordinate pairs used to generate points not checked for accuracy by source", "CR_NOTES": null, "ALPHA_CODE": null, "UNIT_CODEO": null, "UNIT": null, "UNIT_OTHER": null, "UNIT_TYPE": null, "GROUP_CODE": null, "REG_CODE": null, "META_MIDF": null, "NRIS_Refnu": "00001552" }, "geometry": { "type": "Point", "coordinates": [ -80.2919694, 36.1175278 ] } },
{ "type": "Feature", "properties": { "CR_ID": "{B2B78860-AD84-4023-8547-F498E6548F32}", "SURVEY_ID": null, "GEOM_ID": "{2262352A-64CB-43C3-8647-011CF939D835}", "RESNAME": "Bahnson, Agnew Hunter, House", "BND_TYPE": "Arbitrary point", "BND_OTHER": "Point is unspecified coordinate from NPS NRIS", "IS_EXTANT": "Unknown", "EXTANT_OTH": "Feature is likely but not guaranteed to be extant.  Feature was created as part of batch process from NRIS and status needs to be confirmed individually.", "CONTRIBRES": "Unknown", "RESTRICT": "Unrestricted", "SOURCE": "National Register of Historic Places -- National Park Service", "SRC_DATE": "2001-04-12", "SRC_SCALE": "1:24000", "SRC_ACCU": "+/- 12 meters", "VERT_ERROR": "Not Applicable", "SRC_COORD": "Coordinates are typically provided in UTM format, and datum is assumed GCS_North_American_1927 except for sites in certain locations such as Pacifc Ocean islands.", "MAP_METHOD": "Derived by XY event point or centroid generation", "MAP_MTH_OT": "Coordinates are extracted directly from NPS NRIS and processed from assumed coordinate systems based upon location and CERTDATE via XY Event layers into WGS 84 system.  In some instances, clearly incorrect location data has been manually adjusted.", "CREATEDATE": "2012-08-01", "EDIT_DATE": "2012-08-17", "EDIT_BY": "Matt Stutts, NPS, Cultural Resources GIS", "ORIGINATOR": "National Register of Historic Places -- National Park Service", "CONSTRANT": "Extant status and datum information for resource not recorded by source; coordinate pairs used to generate points not checked for accuracy by source", "CR_NOTES": null, "ALPHA_CODE": null, "UNIT_CODEO": null, "UNIT": null, "UNIT_OTHER": null, "UNIT_TYPE": null, "GROUP_CODE": null, "REG_CODE": null, "META_MIDF": null, "NRIS_Refnu": "01000375" }, "geometry": { "type": "Point", "coordinates": [ -80.2530361, 36.0985385 ] } },
{ "type": "Feature", "properties": { "CR_ID": "{F89C5E11-431F-4821-8C7D-E4843606AE48}", "SURVEY_ID": null, "GEOM_ID": "{513A3A4B-3C29-4DD9-AA88-44D8E06F0650}", "RESNAME": "Wachovia Building", "BND_TYPE": "Arbitrary point", "BND_OTHER": "Point is unspecified coordinate from NPS NRIS", "IS_EXTANT": "Unknown", "EXTANT_OTH": "Feature is likely but not guaranteed to be extant.  Feature was created as part of batch process from NRIS and status needs to be confirmed individually.", "CONTRIBRES": "Unknown", "RESTRICT": "Unrestricted", "SOURCE": "National Register of Historic Places -- National Park Service", "SRC_DATE": "2001-04-19", "SRC_SCALE": "1:24000", "SRC_ACCU": "+/- 12 meters", "VERT_ERROR": "Not Applicable", "SRC_COORD": "Coordinates are typically provided in UTM format, and datum is assumed GCS_North_American_1927 except for sites in certain locations such as Pacifc Ocean islands.", "MAP_METHOD": "Derived by XY event point or centroid generation", "MAP_MTH_OT": "Coordinates are extracted directly from NPS NRIS and processed from assumed coordinate systems based upon location and CERTDATE via XY Event layers into WGS 84 system.  In some instances, clearly incorrect location data has been manually adjusted.", "CREATEDATE": "2012-08-01", "EDIT_DATE": "2012-08-17", "EDIT_BY": "Matt Stutts, NPS, Cultural Resources GIS", "ORIGINATOR": "National Register of Historic Places -- National Park Service", "CONSTRANT": "Extant status and datum information for resource not recorded by source; coordinate pairs used to generate points not checked for accuracy by source", "CR_NOTES": null, "ALPHA_CODE": null, "UNIT_CODEO": null, "UNIT": null, "UNIT_OTHER": null, "UNIT_TYPE": null, "GROUP_CODE": null, "REG_CODE": null, "META_MIDF": null, "NRIS_Refnu": "01000376" }, "geometry": { "type": "Point", "coordinates": [ -80.2432625, 36.0982968 ] } },
{ "type": "Feature", "properties": { "CR_ID": "{0ABAB09A-EE06-4ACB-9E2A-316C80878EF6}", "SURVEY_ID": null, "GEOM_ID": "{CB790D89-7685-4843-8DDD-D28CEC66EC9B}", "RESNAME": "Winston-Salem City Hall", "BND_TYPE": "Arbitrary point", "BND_OTHER": "Point is unspecified coordinate from NPS NRIS", "IS_EXTANT": "Unknown", "EXTANT_OTH": "Feature is likely but not guaranteed to be extant.  Feature was created as part of batch process from NRIS and status needs to be confirmed individually.", "CONTRIBRES": "Unknown", "RESTRICT": "Unrestricted", "SOURCE": "National Register of Historic Places -- National Park Service", "SRC_DATE": "2001-10-20", "SRC_SCALE": "1:24000", "SRC_ACCU": "+/- 12 meters", "VERT_ERROR": "Not Applicable", "SRC_COORD": "Coordinates are typically provided in UTM format, and datum is assumed GCS_North_American_1927 except for sites in certain locations such as Pacifc Ocean islands.", "MAP_METHOD": "Derived by XY event point or centroid generation", "MAP_MTH_OT": "Coordinates are extracted directly from NPS NRIS and processed from assumed coordinate systems based upon location and CERTDATE via XY Event layers into WGS 84 system.  In some instances, clearly incorrect location data has been manually adjusted.", "CREATEDATE": "2012-08-01", "EDIT_DATE": "2012-08-17", "EDIT_BY": "Matt Stutts, NPS, Cultural Resources GIS", "ORIGINATOR": "National Register of Historic Places -- National Park Service", "CONSTRANT": "Extant status and datum information for resource not recorded by source; coordinate pairs used to generate points not checked for accuracy by source", "CR_NOTES": null, "ALPHA_CODE": null, "UNIT_CODEO": null, "UNIT": null, "UNIT_OTHER": null, "UNIT_TYPE": null, "GROUP_CODE": null, "REG_CODE": null, "META_MIDF": null, "NRIS_Refnu": "01001130" }, "geometry": { "type": "Point", "coordinates": [ -80.2431381, 36.0950504 ] } },
{ "type": "Feature", "properties": { "CR_ID": "{CD776E86-D2CF-4767-B925-01F751728216}", "SURVEY_ID": null, "GEOM_ID": "{1D068FC6-02F7-467A-A0B5-A77C82099D7E}", "RESNAME": "Nissen Building (Boundary Increase)", "BND_TYPE": "Arbitrary point", "BND_OTHER": "Point is unspecified coordinate from NPS NRIS", "IS_EXTANT": "Unknown", "EXTANT_OTH": "Feature is likely but not guaranteed to be extant.  Feature was created as part of batch process from NRIS and status needs to be confirmed individually.", "CONTRIBRES": "Unknown", "RESTRICT": "Unrestricted", "SOURCE": "National Register of Historic Places -- National Park Service", "SRC_DATE": "2004-08-25", "SRC_SCALE": "1:24000", "SRC_ACCU": "+/- 12 meters", "VERT_ERROR": "Not Applicable", "SRC_COORD": "Coordinates are typically provided in UTM format, and datum is assumed GCS_North_American_1927 except for sites in certain locations such as Pacifc Ocean islands.", "MAP_METHOD": "Derived by XY event point or centroid generation", "MAP_MTH_OT": "Coordinates are extracted directly from NPS NRIS and processed from assumed coordinate systems based upon location and CERTDATE via XY Event layers into WGS 84 system.  In some instances, clearly incorrect location data has been manually adjusted.", "CREATEDATE": "2012-08-01", "EDIT_DATE": "2012-08-17", "EDIT_BY": "Matt Stutts, NPS, Cultural Resources GIS", "ORIGINATOR": "National Register of Historic Places -- National Park Service", "CONSTRANT": "Extant status and datum information for resource not recorded by source; coordinate pairs used to generate points not checked for accuracy by source", "CR_NOTES": null, "ALPHA_CODE": null, "UNIT_CODEO": null, "UNIT": null, "UNIT_OTHER": null, "UNIT_TYPE": null, "GROUP_CODE": null, "REG_CODE": null, "META_MIDF": null, "NRIS_Refnu": "04000907" }, "geometry": { "type": "Point", "coordinates": [ -80.2477127, 36.0976036 ] } },
{ "type": "Feature", "properties": { "CR_ID": "{CE2E332E-9631-4E53-A246-6602FEF36AB3}", "SURVEY_ID": null, "GEOM_ID": "{E393BFF3-BB46-4483-953E-FA9FEB9C1276}", "RESNAME": "Hanes, P.H., Knitting Company", "BND_TYPE": "Arbitrary point", "BND_OTHER": "Point is unspecified coordinate from NPS NRIS", "IS_EXTANT": "Unknown", "EXTANT_OTH": "Feature is likely but not guaranteed to be extant.  Feature was created as part of batch process from NRIS and status needs to be confirmed individually.", "CONTRIBRES": "Unknown", "RESTRICT": "Unrestricted", "SOURCE": "National Register of Historic Places -- National Park Service", "SRC_DATE": "2005-06-10", "SRC_SCALE": "1:24000", "SRC_ACCU": "+/- 12 meters", "VERT_ERROR": "Not Applicable", "SRC_COORD": "Coordinates are typically provided in UTM format, and datum is assumed GCS_North_American_1927 except for sites in certain locations such as Pacifc Ocean islands.", "MAP_METHOD": "Derived by XY event point or centroid generation", "MAP_MTH_OT": "Coordinates are extracted directly from NPS NRIS and processed from assumed coordinate systems based upon location and CERTDATE via XY Event layers into WGS 84 system.  In some instances, clearly incorrect location data has been manually adjusted.", "CREATEDATE": "2012-08-01", "EDIT_DATE": "2012-08-17", "EDIT_BY": "Matt Stutts, NPS, Cultural Resources GIS", "ORIGINATOR": "National Register of Historic Places -- National Park Service", "CONSTRANT": "Extant status and datum information for resource not recorded by source; coordinate pairs used to generate points not checked for accuracy by source", "CR_NOTES": null, "ALPHA_CODE": null, "UNIT_CODEO": null, "UNIT": null, "UNIT_OTHER": null, "UNIT_TYPE": null, "GROUP_CODE": null, "REG_CODE": null, "META_MIDF": null, "NRIS_Refnu": "05000548" }, "geometry": { "type": "Point", "coordinates": [ -80.2438944, 36.1019071 ] } },
{ "type": "Feature", "properties": { "CR_ID": "{AFAE9392-E53C-4E70-82B0-B2A7435DDD96}", "SURVEY_ID": null, "GEOM_ID": "{E0AEA845-A597-4344-B4E0-07E5D5F9E7E9}", "RESNAME": "Dyer, James B. and Diana M., HOuse", "BND_TYPE": "Arbitrary point", "BND_OTHER": "Point is unspecified coordinate from NPS NRIS", "IS_EXTANT": "Unknown", "EXTANT_OTH": "Feature is likely but not guaranteed to be extant.  Feature was created as part of batch process from NRIS and status needs to be confirmed individually.", "CONTRIBRES": "Unknown", "RESTRICT": "Unrestricted", "SOURCE": "National Register of Historic Places -- National Park Service", "SRC_DATE": "2006-04-05", "SRC_SCALE": "1:24000", "SRC_ACCU": "+/- 12 meters", "VERT_ERROR": "Not Applicable", "SRC_COORD": "Coordinates are typically provided in UTM format, and datum is assumed GCS_North_American_1927 except for sites in certain locations such as Pacifc Ocean islands.", "MAP_METHOD": "Derived by XY event point or centroid generation", "MAP_MTH_OT": "Coordinates are extracted directly from NPS NRIS and processed from assumed coordinate systems based upon location and CERTDATE via XY Event layers into WGS 84 system.  In some instances, clearly incorrect location data has been manually adjusted.", "CREATEDATE": "2012-08-01", "EDIT_DATE": "2012-08-17", "EDIT_BY": "Matt Stutts, NPS, Cultural Resources GIS", "ORIGINATOR": "National Register of Historic Places -- National Park Service", "CONSTRANT": "Extant status and datum information for resource not recorded by source; coordinate pairs used to generate points not checked for accuracy by source", "CR_NOTES": null, "ALPHA_CODE": null, "UNIT_CODEO": null, "UNIT": null, "UNIT_OTHER": null, "UNIT_TYPE": null, "GROUP_CODE": null, "REG_CODE": null, "META_MIDF": null, "NRIS_Refnu": "06000227" }, "geometry": { "type": "Point", "coordinates": [ -80.2735441, 36.1153438 ] } },
{ "type": "Feature", "properties": { "CR_ID": "{A4BF1B24-D8E4-458A-B98F-FED5B1F07274}", "SURVEY_ID": null, "GEOM_ID": "{A9658D74-7E47-4E2D-9040-BCA57D19C840}", "RESNAME": "Nissen, S.J., Building", "BND_TYPE": "Arbitrary point", "BND_OTHER": "Point is unspecified coordinate from NPS NRIS", "IS_EXTANT": "Unknown", "EXTANT_OTH": "Feature is likely but not guaranteed to be extant.  Feature was created as part of batch process from NRIS and status needs to be confirmed individually.", "CONTRIBRES": "Unknown", "RESTRICT": "Unrestricted", "SOURCE": "National Register of Historic Places -- National Park Service", "SRC_DATE": "2007-08-16", "SRC_SCALE": "1:24000", "SRC_ACCU": "+/- 12 meters", "VERT_ERROR": "Not Applicable", "SRC_COORD": "Coordinates are typically provided in UTM format, and datum is assumed GCS_North_American_1927 except for sites in certain locations such as Pacifc Ocean islands.", "MAP_METHOD": "Derived by XY event point or centroid generation", "MAP_MTH_OT": "Coordinates are extracted directly from NPS NRIS and processed from assumed coordinate systems based upon location and CERTDATE via XY Event layers into WGS 84 system.  In some instances, clearly incorrect location data has been manually adjusted.", "CREATEDATE": "2012-08-01", "EDIT_DATE": "2012-08-17", "EDIT_BY": "Matt Stutts, NPS, Cultural Resources GIS", "ORIGINATOR": "National Register of Historic Places -- National Park Service", "CONSTRANT": "Extant status and datum information for resource not recorded by source; coordinate pairs used to generate points not checked for accuracy by source", "CR_NOTES": null, "ALPHA_CODE": null, "UNIT_CODEO": null, "UNIT": null, "UNIT_OTHER": null, "UNIT_TYPE": null, "GROUP_CODE": null, "REG_CODE": null, "META_MIDF": null, "NRIS_Refnu": "07000820" }, "geometry": { "type": "Point", "coordinates": [ -80.2402658, 36.0980074 ] } },
{ "type": "Feature", "properties": { "CR_ID": "{BA890D78-B878-4746-80A8-1FEBF1E685A1}", "SURVEY_ID": null, "GEOM_ID": "{CF9A4CFA-E738-476A-93C6-C60FC61BE55B}", "RESNAME": "Chatham Manufacturing Company--Western Electric Company", "BND_TYPE": "Arbitrary point", "BND_OTHER": "Point is unspecified coordinate from NPS NRIS", "IS_EXTANT": "Unknown", "EXTANT_OTH": "Feature is likely but not guaranteed to be extant.  Feature was created as part of batch process from NRIS and status needs to be confirmed individually.", "CONTRIBRES": "Unknown", "RESTRICT": "Unrestricted", "SOURCE": "National Register of Historic Places -- National Park Service", "SRC_DATE": "2011-08-04", "SRC_SCALE": "1:24000", "SRC_ACCU": "+/- 12 meters", "VERT_ERROR": "Not Applicable", "SRC_COORD": "Coordinates are typically provided in UTM format, and datum is assumed GCS_North_American_1927 except for sites in certain locations such as Pacifc Ocean islands.", "MAP_METHOD": "Derived by XY event point or centroid generation", "MAP_MTH_OT": "Coordinates are extracted directly from NPS NRIS and processed from assumed coordinate systems based upon location and CERTDATE via XY Event layers into WGS 84 system.  In some instances, clearly incorrect location data has been manually adjusted.", "CREATEDATE": "2012-08-01", "EDIT_DATE": "2012-08-17", "EDIT_BY": "Matt Stutts, NPS, Cultural Resources GIS", "ORIGINATOR": "National Register of Historic Places -- National Park Service", "CONSTRANT": "Extant status and datum information for resource not recorded by source; coordinate pairs used to generate points not checked for accuracy by source", "CR_NOTES": null, "ALPHA_CODE": null, "UNIT_CODEO": null, "UNIT": null, "UNIT_OTHER": null, "UNIT_TYPE": null, "GROUP_CODE": null, "REG_CODE": null, "META_MIDF": null, "NRIS_Refnu": "11000509" }, "geometry": { "type": "Point", "coordinates": [ -80.254318, 36.1039559 ] } },
{ "type": "Feature", "properties": { "CR_ID": "{28B2F12B-1E5D-48B8-B750-00D38EAE30C8}", "SURVEY_ID": null, "GEOM_ID": "{2CCB612A-BE0D-4AC6-9B74-38D8393A1255}", "RESNAME": "Hanes, Robert M., House", "BND_TYPE": "Arbitrary point", "BND_OTHER": "Point is unspecified coordinate from NPS NRIS", "IS_EXTANT": "Unknown", "EXTANT_OTH": "Feature is likely but not guaranteed to be extant.  Feature was created as part of batch process from NRIS and status needs to be confirmed individually.", "CONTRIBRES": "Unknown", "RESTRICT": "Unrestricted", "SOURCE": "National Register of Historic Places -- National Park Service", "SRC_DATE": "2012-08-28", "SRC_SCALE": "1:24000", "SRC_ACCU": "+/- 12 meters", "VERT_ERROR": "Not Applicable", "SRC_COORD": "Coordinates are typically provided in UTM format, and datum is assumed GCS_North_American_1927 except for sites in certain locations such as Pacifc Ocean islands.", "MAP_METHOD": "Derived by XY event point or centroid generation", "MAP_MTH_OT": "Coordinates are extracted directly from NPS NRIS and processed from assumed coordinate systems based upon location and CERTDATE via XY Event layers into WGS 84 system.  In some instances, clearly incorrect location data has been manually adjusted.", "CREATEDATE": "2013-01-15", "EDIT_DATE": "2013-01-15", "EDIT_BY": "Matt Stutts, NPS, Cultural Resources GIS", "ORIGINATOR": "National Register of Historic Places -- National Park Service", "CONSTRANT": "Extant status and datum information for resource not recorded by source; coordinate pairs used to generate points not checked for accuracy by source", "CR_NOTES": null, "ALPHA_CODE": null, "UNIT_CODEO": null, "UNIT": null, "UNIT_OTHER": null, "UNIT_TYPE": null, "GROUP_CODE": null, "REG_CODE": null, "META_MIDF": null, "NRIS_Refnu": "12000573" }, "geometry": { "type": "Point", "coordinates": [ -80.2765875, 36.0985026 ] } },
{ "type": "Feature", "properties": { "CR_ID": "{71C48297-106D-4B1B-BE6C-CFCD775A720E}", "SURVEY_ID": null, "GEOM_ID": "{194A10D3-230A-4D9C-AA68-CA8AC21753A2}", "RESNAME": "Forsyth County Courthouse", "BND_TYPE": "Arbitrary point", "BND_OTHER": "Point is unspecified coordinate from NPS NRIS", "IS_EXTANT": "Unknown", "EXTANT_OTH": "Feature is likely but not guaranteed to be extant.  Feature was created as part of batch process from NRIS and status needs to be confirmed individually.", "CONTRIBRES": "Unknown", "RESTRICT": "Unrestricted", "SOURCE": "National Register of Historic Places -- National Park Service", "SRC_DATE": "2014-04-28", "SRC_SCALE": "1:24000", "SRC_ACCU": "+/- 12 meters", "VERT_ERROR": "Not Applicable", "SRC_COORD": "Coordinates are typically provided in UTM format, and datum is assumed GCS_North_American_1927 except for sites in certain locations such as Pacifc Ocean islands.", "MAP_METHOD": "Derived by XY event point or centroid generation", "MAP_MTH_OT": "Coordinates are extracted directly from NPS NRIS and processed from assumed coordinate systems based upon location and CERTDATE via XY Event layers into WGS 84 system.  In some instances, clearly incorrect location data has been manually adjusted.", "CREATEDATE": "2014-04-30", "EDIT_DATE": "2014-04-30", "EDIT_BY": "Matt Stutts, NPS, Cultural Resources GIS", "ORIGINATOR": "National Register of Historic Places -- National Park Service", "CONSTRANT": "Extant status and datum information for resource not recorded by source; coordinate pairs used to generate points not checked for accuracy by source", "CR_NOTES": null, "ALPHA_CODE": null, "UNIT_CODEO": null, "UNIT": null, "UNIT_OTHER": null, "UNIT_TYPE": null, "GROUP_CODE": null, "REG_CODE": null, "META_MIDF": null, "NRIS_Refnu": "13000205" }, "geometry": { "type": "Point", "coordinates": [ -80.2441796, 36.1003022 ] } },
{ "type": "Feature", "properties": { "CR_ID": "{8A4D15CE-C570-4A25-90D6-37EF9C0819EA}", "SURVEY_ID": null, "GEOM_ID": "{F0AAFE5E-7547-403F-AB73-96B9E3D9CC53}", "RESNAME": "Pepper Building", "BND_TYPE": "Arbitrary point", "BND_OTHER": "Point is unspecified coordinate from NPS NRIS", "IS_EXTANT": "Unknown", "EXTANT_OTH": "Feature assumed to be extant but was not individually verified during data creation process", "CONTRIBRES": "Unknown", "RESTRICT": "Unrestricted", "SOURCE": "National Register of Historic Places -- National Park Service", "SRC_DATE": "2017-06-30", "SRC_SCALE": "1:24000", "SRC_ACCU": "+/- 12 meters", "VERT_ERROR": "Not Applicable", "SRC_COORD": "NAD83 UTM, assumed", "MAP_METHOD": "Derived by XY event point or centroid generation", "MAP_MTH_OT": "Coordinates are extracted directly from NPS NRIS and processed from assumed coordinate systems based upon location and CERTDATE via XY Event layers into WGS 84 system.  In some instances, clearly incorrect location data has been manually adjusted.", "CREATEDATE": "2017-07-01", "EDIT_DATE": "2017-11-28", "EDIT_BY": "Matt Stutts, NPS, Cultural Resources GIS", "ORIGINATOR": "National Register of Historic Places -- National Park Service", "CONSTRANT": "Extant status and datum information for resource not recorded by source; coordinate pairs used to generate points not checked for accuracy by source", "CR_NOTES": null, "ALPHA_CODE": null, "UNIT_CODEO": null, "UNIT": null, "UNIT_OTHER": null, "UNIT_TYPE": null, "GROUP_CODE": null, "REG_CODE": null, "META_MIDF": null, "NRIS_Refnu": "12000263" }, "geometry": { "type": "Point", "coordinates": [ -80.2452722, 36.0961876 ] } },
{ "type": "Feature", "properties": { "CR_ID": "{9E9A1CEA-B3EA-49DB-B7D9-F1E38235E8EC}", "SURVEY_ID": null, "GEOM_ID": "{060409D6-5F94-427E-BA7F-F34F9E3F244A}", "RESNAME": "Reynolds Building", "BND_TYPE": "Arbitrary point", "BND_OTHER": "Point is unspecified coordinate from NPS NRIS", "IS_EXTANT": "Unknown", "EXTANT_OTH": "Feature assumed to be extant but was not individually verified during data creation process", "CONTRIBRES": "Unknown", "RESTRICT": "Unrestricted", "SOURCE": "National Register of Historic Places -- National Park Service", "SRC_DATE": "2017-06-30", "SRC_SCALE": "1:24000", "SRC_ACCU": "+/- 12 meters", "VERT_ERROR": "Not Applicable", "SRC_COORD": "NAD83 UTM, assumed", "MAP_METHOD": "Derived by XY event point or centroid generation", "MAP_MTH_OT": "Coordinates are extracted directly from NPS NRIS and processed from assumed coordinate systems based upon location and CERTDATE via XY Event layers into WGS 84 system.  In some instances, clearly incorrect location data has been manually adjusted.", "CREATEDATE": "2017-07-01", "EDIT_DATE": "2017-11-28", "EDIT_BY": "Matt Stutts, NPS, Cultural Resources GIS", "ORIGINATOR": "National Register of Historic Places -- National Park Service", "CONSTRANT": "Extant status and datum information for resource not recorded by source; coordinate pairs used to generate points not checked for accuracy by source", "CR_NOTES": null, "ALPHA_CODE": null, "UNIT_CODEO": null, "UNIT": null, "UNIT_OTHER": null, "UNIT_TYPE": null, "GROUP_CODE": null, "REG_CODE": null, "META_MIDF": null, "NRIS_Refnu": "14000494" }, "geometry": { "type": "Point", "coordinates": [ -80.2382499, 36.0986675 ] } }
]
}
