{"type":"FeatureCollection","features":[{"type":"Feature","properties":{"Shape_Leng":0.0236462409099,"Shape_Area":0.0000246590729116,"density":7},"geometry":{"type":"Polygon","coordinates":[[[-80.2374478,36.1052717,0],[-80.2392412,36.1051978,0],[-80.241959,36.1043658,0],[-80.245139,36.1044397,0],[-80.2446953,36.1027943,0],[-80.244344,36.1000025,0],[-80.2404984,36.1005017,0],[-80.2404245,36.1019438,0],[-80.240443,36.1027203,0],[-80.2377252,36.1027943,0],[-80.2374478,36.1052717,0]]]}},{"type":"Feature","properties":{"Shape_Leng":0.0315374516692,"Shape_Area":0.0000536230557663,"density":4},"geometry":{"type":"Polygon","coordinates":[[[-80.230587,36.0929672,0],[-80.2305064,36.0924755,0],[-80.2302352,36.0919802,0],[-80.2296102,36.0910721,0],[-80.2291149,36.0900107,0],[-80.2289851,36.0889729,0],[-80.2288082,36.0877347,0],[-80.2285842,36.0862487,0],[-80.2272044,36.086402,0],[-80.2265204,36.0858714,0],[-80.2258835,36.0857063,0],[-80.2251642,36.0859539,0],[-80.224433,36.0862841,0],[-80.2231357,36.0867794,0],[-80.2222631,36.0870153,0],[-80.2216734,36.0872747,0],[-80.2214493,36.0876639,0],[-80.2205648,36.0880531,0],[-80.2193556,36.0884178,0],[-80.2193363,36.0885289,0],[-80.2193943,36.0886931,0],[-80.2195006,36.0889588,0],[-80.2195006,36.0893162,0],[-80.2193315,36.0898959,0],[-80.2193508,36.0900456,0],[-80.2196213,36.0901229,0],[-80.2198,36.090234,0],[-80.2199739,36.0902147,0],[-80.2205391,36.0900505,0],[-80.2210511,36.090292,0],[-80.2211477,36.0905142,0],[-80.2210801,36.0908958,0],[-80.2211622,36.0910649,0],[-80.2215825,36.0913016,0],[-80.2216615,36.0915564,0],[-80.2279669,36.0934279,0],[-80.230587,36.0929672,0]]]}},{"type":"Feature","properties":{"Shape_Leng":0.0361927361509,"Shape_Area":0.0000645064341328,"density":13},"geometry":{"type":"Polygon","coordinates":[[[-80.2378137,36.0991862,0],[-80.2497623,36.0978618,0],[-80.2493592,36.0956161,0],[-80.2498487,36.0955585,0],[-80.2493016,36.0925929,0],[-80.2448101,36.0937158,0],[-80.2403186,36.0931112,0],[-80.2370075,36.0933415,0],[-80.2378137,36.0991862,0]]]}},{"type":"Feature","properties":{"Shape_Leng":0.038604316801,"Shape_Area":0.000069893472556,"density":9},"geometry":{"type":"Polygon","coordinates":[[[-80.2492728,36.0922474,0],[-80.246624,36.0884469,0],[-80.2448389,36.0887348,0],[-80.2441767,36.0886197,0],[-80.2436872,36.0870937,0],[-80.2432266,36.0849631,0],[-80.2410672,36.0819688,0],[-80.2400019,36.0836675,0],[-80.236806,36.0875544,0],[-80.2379577,36.0930536,0],[-80.2408944,36.0925641,0],[-80.2492728,36.0922474,0]]]}},{"type":"Feature","properties":{"Shape_Leng":0.0277984068399,"Shape_Area":0.0000404610168718,"density":5},"geometry":{"type":"Polygon","coordinates":[[[-80.2528142,36.0974587,0],[-80.2514034,36.1019215,0],[-80.2541962,36.1052325,0],[-80.2581695,36.1028428,0],[-80.2580543,36.101432,0],[-80.2575649,36.1004531,0],[-80.2572194,36.0984952,0],[-80.2582559,36.0982649,0],[-80.2581695,36.0978618,0],[-80.2585726,36.0971708,0],[-80.2590908,36.0967389,0],[-80.2586877,36.0962495,0],[-80.2578816,36.0967101,0],[-80.2570466,36.0969981,0],[-80.2528142,36.0974587,0]]]}},{"type":"Feature","properties":{"Shape_Leng":0.0853450690505,"Shape_Area":0.000431003517747,"density":2},"geometry":{"type":"Polygon","coordinates":[[[-80.2532965,36.0952148,0],[-80.2543762,36.0948999,0],[-80.2553209,36.0929654,0],[-80.2575703,36.0899063,0],[-80.2576152,36.0848227,0],[-80.2583494,36.0775854,0],[-80.2584593,36.0720938,0],[-80.2579101,36.0653941,0],[-80.2525366,36.0653073,0],[-80.2471127,36.0647374,0],[-80.2416496,36.0661327,0],[-80.2385446,36.0659165,0],[-80.2390219,36.0705355,0],[-80.2407971,36.0807068,0],[-80.2532965,36.0952148,0]]]}}]}